{
"type": "FeatureCollection",
"crs": { "type": "name", "properties": { "name": "urn:ogc:def:crs:EPSG::5186" } },
"features": [
{ "type": "Feature", "properties": { "area": 7.4879735513401826, "poly2_idx": 1, "cut_link": false, "iou_1n": null, "ol_pl1_1n": null, "ol_pl2_1n": null, "iou_n1": null, "ol_pl1_n1": null, "ol_pl2_n1": null, "iou_11": null, "ol_pl1_11": null, "ol_pl2_11": null, "iou_nn": 0.07712913650288801, "ol_pl1_nn": 0.077249646899413785, "ol_pl2_nn": 0.98017500142274772, "comp_idx": 40.0, "rel_cd": "1:1", "class_10": "1:1 갱신", "cd_class": "갱신" }, "geometry": { "type": "Polygon", "coordinates": [ [ [ 201610.52459492685739, 545579.657289329683408 ], [ 201611.134787350369152, 545577.740507144480944 ], [ 201612.340506492648274, 545576.666900191456079 ], [ 201613.660484923224431, 545576.673914213082753 ], [ 201613.644543944275938, 545579.673867937643081 ], [ 201610.52459492685739, 545579.657289329683408 ] ] ] } },
{ "type": "Feature", "properties": { "area": 52.099010963840435, "poly2_idx": 2, "cut_link": false, "iou_1n": null, "ol_pl1_1n": null, "ol_pl2_1n": null, "iou_n1": null, "ol_pl1_n1": null, "ol_pl2_n1": null, "iou_11": null, "ol_pl1_11": null, "ol_pl2_11": null, "iou_nn": 0.098862361035477284, "ol_pl1_nn": 0.11824139983011947, "ol_pl2_nn": 0.37625127453818252, "comp_idx": 42.0, "rel_cd": "1:1", "class_10": "1:1 갱신", "cd_class": "갱신" }, "geometry": { "type": "Polygon", "coordinates": [ [ [ 201563.365366831014398, 545579.40669729700312 ], [ 201563.376206696120789, 545577.366728878696449 ], [ 201565.802948180789826, 545572.339559653657489 ], [ 201568.682900981628336, 545572.354862961219624 ], [ 201572.154554657521658, 545573.933330324594863 ], [ 201572.139888965437422, 545576.69328762521036 ], [ 201571.285237028030679, 545579.448781455401331 ], [ 201563.365366831014398, 545579.40669729700312 ] ] ] } },
{ "type": "Feature", "properties": { "area": 114.54439185447067, "poly2_idx": 3, "cut_link": false, "iou_1n": null, "ol_pl1_1n": null, "ol_pl2_1n": null, "iou_n1": null, "ol_pl1_n1": null, "ol_pl2_n1": null, "iou_11": null, "ol_pl1_11": null, "ol_pl2_11": null, "iou_nn": 0.77557918807890491, "ol_pl1_nn": 0.97463629896760762, "ol_pl2_nn": 0.79155553866650141, "comp_idx": 39.0, "rel_cd": "1:1", "class_10": "1:1 변화없음", "cd_class": "변화없음" }, "geometry": { "type": "Polygon", "coordinates": [ [ [ 201598.893712170567596, 545577.915464310208336 ], [ 201593.383367052243557, 545576.086160742561333 ], [ 201591.949767001351574, 545574.878527622437105 ], [ 201592.213993333949475, 545570.319873344385996 ], [ 201594.878180378960678, 545565.773971803719178 ], [ 201597.638135233079083, 545565.788637455552816 ], [ 201599.434279967739712, 545566.51819089287892 ], [ 201604.329331638669828, 545571.224261772236787 ], [ 201603.457463439175626, 545577.219705689349212 ], [ 201602.49365330094588, 545577.934593467158265 ], [ 201598.893712170567596, 545577.915464310208336 ] ] ] } },
{ "type": "Feature", "properties": { "area": 417.13766350807003, "poly2_idx": 4, "cut_link": false, "iou_1n": 0.64116323124184982, "ol_pl1_1n": 0.66738816667021139, "ol_pl2_1n": 0.94225232115222313, "iou_n1": null, "ol_pl1_n1": null, "ol_pl2_n1": null, "iou_11": null, "ol_pl1_11": null, "ol_pl2_11": null, "iou_nn": 0.15653488391249806, "ol_pl1_nn": 0.38631945780928745, "ol_pl2_nn": 0.20834109781103477, "comp_idx": 41.0, "rel_cd": "N:1", "class_10": "N:1 갱신", "cd_class": "갱신" }, "geometry": { "type": "Polygon", "coordinates": [ [ [ 201527.485955727286637, 545579.216043316875584 ], [ 201527.493607396318112, 545577.776065665530041 ], [ 201529.318445734446868, 545573.105702864006162 ], [ 201530.891172869771253, 545570.714029395603575 ], [ 201531.75538931140909, 545566.158563605044037 ], [ 201534.787221891310764, 545560.174597598612309 ], [ 201537.667174593079835, 545560.189900867990218 ], [ 201540.180756846209988, 545561.403272621682845 ], [ 201542.100087688566418, 545561.533472942304797 ], [ 201550.360822678165277, 545565.177414076752029 ], [ 201550.346794650773518, 545567.817373170051724 ], [ 201548.881312754470855, 545572.609647144330665 ], [ 201549.114294791943394, 545573.930901965126395 ], [ 201549.835558255261276, 545573.694731513038278 ], [ 201550.687659602641361, 545571.419230305589736 ], [ 201553.207618259621086, 545571.432620696607046 ], [ 201562.428975211980287, 545574.961664924398065 ], [ 201561.805392404581653, 545579.398407994885929 ], [ 201527.485955727286637, 545579.216043316875584 ] ] ] } },
{ "type": "Feature", "properties": { "area": 102.05243393896146, "poly2_idx": 5, "cut_link": false, "iou_1n": null, "ol_pl1_1n": null, "ol_pl2_1n": null, "iou_n1": null, "ol_pl1_n1": null, "ol_pl2_n1": null, "iou_11": null, "ol_pl1_11": null, "ol_pl2_11": null, "iou_nn": 0.55647990550937798, "ol_pl1_nn": 0.6220213974275246, "ol_pl2_nn": 0.84079656295322225, "comp_idx": 38.0, "rel_cd": "1:1", "class_10": "1:1 갱신", "cd_class": "갱신" }, "geometry": { "type": "Polygon", "coordinates": [ [ [ 201586.558144674781943, 545573.289858014788479 ], [ 201585.605174411612097, 545571.964777312823571 ], [ 201581.777352402161341, 545569.664408153388649 ], [ 201582.039665796124609, 545565.465748360846192 ], [ 201583.746419052156853, 545560.434753185836598 ], [ 201586.62637190730311, 545560.450056456611492 ], [ 201589.497397853148868, 545562.145333767984994 ], [ 201592.733519013447221, 545562.882538828998804 ], [ 201592.716302805114537, 545566.122488777851686 ], [ 201591.508670786890434, 545567.556090161087923 ], [ 201590.286373091541464, 545571.749648894532584 ], [ 201589.078103430423653, 545573.303248412208632 ], [ 201586.558144674781943, 545573.289858014788479 ] ] ] } },
{ "type": "Feature", "properties": { "area": 248.87427181411672, "poly2_idx": 6, "cut_link": false, "iou_1n": null, "ol_pl1_1n": null, "ol_pl2_1n": null, "iou_n1": null, "ol_pl1_n1": null, "ol_pl2_n1": null, "iou_11": null, "ol_pl1_11": null, "ol_pl2_11": null, "iou_nn": 0.90625723690797133, "ol_pl1_nn": 0.92997994567363262, "ol_pl2_nn": 0.97262312964399322, "comp_idx": 31.0, "rel_cd": "1:1", "class_10": "1:1 변화없음", "cd_class": "변화없음" }, "geometry": { "type": "Polygon", "coordinates": [ [ [ 201522.936232896870933, 545577.271842854446732 ], [ 201522.581977566238493, 545576.189946705359034 ], [ 201514.909755505243083, 545574.709160219412297 ], [ 201512.157452564832056, 545573.254516914952546 ], [ 201512.172118245769525, 545570.494559795595706 ], [ 201517.040266495896503, 545557.680264711845666 ], [ 201522.676985587866511, 545558.310224284534343 ], [ 201523.268686448427616, 545559.873388246865943 ], [ 201530.21836988144787, 545561.830341354478151 ], [ 201529.710321724327514, 545567.107708879513666 ], [ 201527.886758694134187, 545571.538075419841334 ], [ 201527.755283173377393, 545573.697404260165058 ], [ 201525.45619147803518, 545577.285233261762187 ], [ 201522.936232896870933, 545577.271842854446732 ] ] ] } },
{ "type": "Feature", "properties": { "area": 148.20426415574013, "poly2_idx": 7, "cut_link": false, "iou_1n": null, "ol_pl1_1n": null, "ol_pl2_1n": null, "iou_n1": null, "ol_pl1_n1": null, "ol_pl2_n1": null, "iou_11": null, "ol_pl1_11": null, "ol_pl2_11": null, "iou_nn": 0.82167842935820945, "ol_pl1_nn": 0.84098401930701738, "ol_pl2_nn": 0.97282143154403999, "comp_idx": 30.0, "rel_cd": "1:1", "class_10": "1:1 변화없음", "cd_class": "변화없음" }, "geometry": { "type": "Polygon", "coordinates": [ [ [ 201573.007293664471945, 545571.537830917513929 ], [ 201570.734982679074164, 545570.08573808206711 ], [ 201567.498861601663521, 545569.34853301034309 ], [ 201567.274168843316147, 545566.467302306788042 ], [ 201571.654673556477064, 545555.090433612233028 ], [ 201574.415265976451337, 545554.985101086320356 ], [ 201578.844353436550591, 545557.048662056447938 ], [ 201578.839252345787827, 545558.008647211128846 ], [ 201579.795410804450512, 545558.733737168135121 ], [ 201579.780745157157071, 545561.493694490054622 ], [ 201576.611060522554908, 545570.836971184355207 ], [ 201576.00724452137365, 545571.553771861130372 ], [ 201573.007293664471945, 545571.537830917513929 ] ] ] } },
{ "type": "Feature", "properties": { "area": 136.7707156154311, "poly2_idx": 8, "cut_link": false, "iou_1n": null, "ol_pl1_1n": null, "ol_pl2_1n": null, "iou_n1": null, "ol_pl1_n1": null, "ol_pl2_n1": null, "iou_11": null, "ol_pl1_11": null, "ol_pl2_11": null, "iou_nn": 0.83486150289472794, "ol_pl1_nn": 0.86546857472844219, "ol_pl2_nn": 0.95936144068683959, "comp_idx": 37.0, "rel_cd": "1:1", "class_10": "1:1 변화없음", "cd_class": "변화없음" }, "geometry": { "type": "Polygon", "coordinates": [ [ [ 201609.267105081642512, 545567.890456762164831 ], [ 201605.447572248725919, 545564.030111639294773 ], [ 201603.055263134592678, 545562.577381133101881 ], [ 201601.148684904706897, 545560.047217854880728 ], [ 201601.163350547460141, 545557.287260467885062 ], [ 201605.988777513732202, 545552.512839984148741 ], [ 201608.508736322022742, 545552.52623032417614 ], [ 201608.624908545723883, 545553.246856848127209 ], [ 201609.464257181825815, 545553.371318444609642 ], [ 201613.761869320383994, 545557.594208528986201 ], [ 201613.712771266669733, 545566.834065999137238 ], [ 201611.907061938312836, 545567.904484782135114 ], [ 201609.267105081642512, 545567.890456762164831 ] ] ] } },
{ "type": "Feature", "properties": { "area": 337.08112892411032, "poly2_idx": 9, "cut_link": false, "iou_1n": null, "ol_pl1_1n": null, "ol_pl2_1n": null, "iou_n1": null, "ol_pl1_n1": null, "ol_pl2_n1": null, "iou_11": null, "ol_pl1_11": null, "ol_pl2_11": null, "iou_nn": 0.91757323178955619, "ol_pl1_nn": 0.97989582769999506, "ol_pl2_nn": 0.93517845424659585, "comp_idx": 29.0, "rel_cd": "1:1", "class_10": "1:1 변화없음", "cd_class": "변화없음" }, "geometry": { "type": "Polygon", "coordinates": [ [ [ 201503.646519689442357, 545571.529270738479681 ], [ 201500.409761210874422, 545570.912063850089908 ], [ 201492.149026692728512, 545567.268122859997675 ], [ 201492.163054718781495, 545564.628163933055475 ], [ 201493.262166045053164, 545561.033958667656407 ], [ 201498.849026939627947, 545548.463485875050537 ], [ 201506.406989599869121, 545548.863651266554371 ], [ 201511.67542529234197, 545551.051673637586646 ], [ 201511.789684595889412, 545552.13229449337814 ], [ 201512.507759845524561, 545552.496114711277187 ], [ 201512.492456581705483, 545555.37606996728573 ], [ 201511.646094036026625, 545556.571587874204852 ], [ 201511.514618553133914, 545558.73091667983681 ], [ 201507.135389354079962, 545569.867788340663537 ], [ 201506.166478217142867, 545571.542661129496992 ], [ 201503.646519689442357, 545571.529270738479681 ] ] ] } },
{ "type": "Feature", "properties": { "area": 182.87213411620041, "poly2_idx": 10, "cut_link": false, "iou_1n": null, "ol_pl1_1n": null, "ol_pl2_1n": null, "iou_n1": null, "ol_pl1_n1": null, "ol_pl2_n1": null, "iou_11": null, "ol_pl1_11": null, "ol_pl2_11": null, "iou_nn": 0.87434815862504911, "ol_pl1_nn": 0.93157628775744128, "ol_pl2_nn": 0.93435260122950359, "comp_idx": 28.0, "rel_cd": "1:1", "class_10": "1:1 변화없음", "cd_class": "변화없음" }, "geometry": { "type": "Polygon", "coordinates": [ [ [ 201559.965128677285975, 545564.388438032707199 ], [ 201557.569631495221984, 545563.535698307678103 ], [ 201554.70115619871649, 545561.36042848485522 ], [ 201555.204103247146122, 545557.043045941740274 ], [ 201556.540022500499617, 545554.050106400274672 ], [ 201557.745741543883923, 545552.976499479846098 ], [ 201559.45121941762045, 545548.185500698280521 ], [ 201560.054397756000981, 545547.58869816234801 ], [ 201563.174346601444995, 545547.605276661925018 ], [ 201569.762760990939569, 545549.800313141779043 ], [ 201569.619808072689921, 545554.119608662324026 ], [ 201567.925169970025308, 545556.870639054453932 ], [ 201565.366315423452761, 545564.177135403617285 ], [ 201559.965128677285975, 545564.388438032707199 ] ] ] } },
{ "type": "Feature", "properties": { "area": 25.833508690103653, "poly2_idx": 11, "cut_link": false, "iou_1n": null, "ol_pl1_1n": null, "ol_pl2_1n": null, "iou_n1": null, "ol_pl1_n1": null, "ol_pl2_n1": null, "iou_11": null, "ol_pl1_11": null, "ol_pl2_11": null, "iou_nn": 0.13739095668809315, "ol_pl1_nn": 0.14177589076682409, "ol_pl2_nn": 0.81625055843489558, "comp_idx": 36.0, "rel_cd": "1:1", "class_10": "1:1 갱신", "cd_class": "갱신" }, "geometry": { "type": "Polygon", "coordinates": [ [ [ 201612.461019975860836, 545553.987250070902519 ], [ 201609.716368337743916, 545551.092628894839436 ], [ 201609.729758683912223, 545548.5726677760249 ], [ 201612.505016822949983, 545545.707377805025317 ], [ 201613.824995254428359, 545545.714391783461906 ], [ 201613.780998407513835, 545553.994264061446302 ], [ 201612.461019975860836, 545553.987250070902519 ] ] ] } },
{ "type": "Feature", "properties": { "area": 116.83395589002686, "poly2_idx": 12, "cut_link": false, "iou_1n": null, "ol_pl1_1n": null, "ol_pl2_1n": null, "iou_n1": null, "ol_pl1_n1": null, "ol_pl2_n1": null, "iou_11": null, "ol_pl1_11": null, "ol_pl2_11": null, "iou_nn": 0.89788925954582066, "ol_pl1_nn": 0.95630822536653171, "ol_pl2_nn": 0.93629879316577203, "comp_idx": 27.0, "rel_cd": "1:1", "class_10": "1:1 변화없음", "cd_class": "변화없음" }, "geometry": { "type": "Polygon", "coordinates": [ [ [ 201486.304193611897063, 545560.636981362011284 ], [ 201483.909334255236899, 545559.664243581937626 ], [ 201483.923999895050656, 545556.904286545352079 ], [ 201485.517768894293113, 545550.552674803766422 ], [ 201489.037882564851316, 545543.011283861706033 ], [ 201491.677839076612145, 545543.025311807985418 ], [ 201494.430779638787499, 545544.35995685623493 ], [ 201493.80400884791743, 545549.396690285182558 ], [ 201489.18478379768203, 545560.532286502653733 ], [ 201486.304193611897063, 545560.636981362011284 ] ] ] } },
{ "type": "Feature", "properties": { "area": 124.58115543492892, "poly2_idx": 13, "cut_link": false, "iou_1n": null, "ol_pl1_1n": null, "ol_pl2_1n": null, "iou_n1": null, "ol_pl1_n1": null, "ol_pl2_n1": null, "iou_11": null, "ol_pl1_11": null, "ol_pl2_11": null, "iou_nn": 0.82947924765645065, "ol_pl1_nn": 0.87630911431244018, "ol_pl2_nn": 0.93947362562899572, "comp_idx": 35.0, "rel_cd": "1:1", "class_10": "1:1 변화없음", "cd_class": "변화없음" }, "geometry": { "type": "Polygon", "coordinates": [ [ [ 201594.205377293430502, 545556.890283148735762 ], [ 201589.190965203975793, 545552.063576616463251 ], [ 201588.967547656677198, 545548.942349556949921 ], [ 201590.659635231713764, 545546.67131166998297 ], [ 201594.996780692483298, 545543.454316555289552 ], [ 201597.636737506487407, 545543.468344504479319 ], [ 201598.948426667018794, 545545.035334389773197 ], [ 201600.027133733645314, 545545.281069391989149 ], [ 201600.142030692280969, 545546.24169220472686 ], [ 201602.410515977157047, 545548.413773913285695 ], [ 201602.397125634044642, 545550.93373501021415 ], [ 201596.965332144143758, 545556.904948773561046 ], [ 201594.205377293430502, 545556.890283148735762 ] ] ] } },
{ "type": "Feature", "properties": { "area": 96.68845684079804, "poly2_idx": 14, "cut_link": false, "iou_1n": null, "ol_pl1_1n": null, "ol_pl2_1n": null, "iou_n1": null, "ol_pl1_n1": null, "ol_pl2_n1": null, "iou_11": null, "ol_pl1_11": null, "ol_pl2_11": null, "iou_nn": 0.79132067884308144, "ol_pl1_nn": 0.85909441487781679, "ol_pl2_nn": 0.90934406281261926, "comp_idx": 34.0, "rel_cd": "1:1", "class_10": "1:1 변화없음", "cd_class": "변화없음" }, "geometry": { "type": "Polygon", "coordinates": [ [ [ 201605.046009366982616, 545549.267788911005482 ], [ 201598.240553501353133, 545542.751543793827295 ], [ 201597.898413150396664, 545539.389682777691633 ], [ 201598.623502446251223, 545538.433523403014988 ], [ 201604.62786777241854, 545537.625418038340285 ], [ 201607.371244170441059, 545540.760035455576144 ], [ 201608.810582999925828, 545540.887685208697803 ], [ 201610.002911773888627, 545542.334039327106439 ], [ 201610.098042056080885, 545547.01460475102067 ], [ 201607.685966213583015, 545549.281816876493394 ], [ 201605.046009366982616, 545549.267788911005482 ] ] ] } },
{ "type": "Feature", "properties": { "area": 190.33129613083958, "poly2_idx": 15, "cut_link": false, "iou_1n": null, "ol_pl1_1n": null, "ol_pl2_1n": null, "iou_n1": null, "ol_pl1_n1": null, "ol_pl2_n1": null, "iou_11": null, "ol_pl1_11": null, "ol_pl2_11": null, "iou_nn": 0.88134123360679728, "ol_pl1_nn": 0.96817568347330607, "ol_pl2_nn": 0.90763546377502768, "comp_idx": 26.0, "rel_cd": "1:1", "class_10": "1:1 변화없음", "cd_class": "변화없음" }, "geometry": { "type": "Polygon", "coordinates": [ [ [ 201536.137169126159279, 545554.541699071531184 ], [ 201528.113879734155489, 545551.379025913192891 ], [ 201528.128545349754859, 545548.619068744243123 ], [ 201531.277825296216179, 545543.115732888923958 ], [ 201532.745857546658954, 545537.843466409482062 ], [ 201533.952851807815023, 545536.529863218776882 ], [ 201537.072162931464845, 545536.666439820197411 ], [ 201543.537390960176708, 545539.46082922432106 ], [ 201543.52208773692837, 545542.340784580097534 ], [ 201541.215982138644904, 545547.24859325424768 ], [ 201540.835583717038389, 545551.086620812886395 ], [ 201538.657127743732417, 545554.555089417262934 ], [ 201536.137169126159279, 545554.541699071531184 ] ] ] } },
{ "type": "Feature", "properties": { "area": 132.13392413974756, "poly2_idx": 16, "cut_link": false, "iou_1n": null, "ol_pl1_1n": null, "ol_pl2_1n": null, "iou_n1": null, "ol_pl1_n1": null, "ol_pl2_n1": null, "iou_11": null, "ol_pl1_11": null, "ol_pl2_11": null, "iou_nn": 0.82926700646198515, "ol_pl1_nn": 0.97558782975486624, "ol_pl2_nn": 0.84683958749652621, "comp_idx": 33.0, "rel_cd": "1:1", "class_10": "1:1 변화없음", "cd_class": "변화없음" }, "geometry": { "type": "Polygon", "coordinates": [ [ [ 201578.900465379381785, 545546.488825349020772 ], [ 201574.608592061907984, 545541.185952181578614 ], [ 201574.150279482273618, 545537.103464756859466 ], [ 201575.603008567384677, 545534.711153474752791 ], [ 201577.771262422495056, 545533.162654992076568 ], [ 201582.933090828330023, 545532.830078764003702 ], [ 201587.707506912905956, 545537.65550989320036 ], [ 201587.69411659668549, 545540.175470947637223 ], [ 201582.263598534918856, 545545.906688389019109 ], [ 201581.420424113137415, 545546.502215672750026 ], [ 201578.900465379381785, 545546.488825349020772 ] ] ] } },
{ "type": "Feature", "properties": { "area": 61.286174754397841, "poly2_idx": 17, "cut_link": false, "iou_1n": null, "ol_pl1_1n": null, "ol_pl2_1n": null, "iou_n1": null, "ol_pl1_n1": null, "ol_pl2_n1": null, "iou_11": null, "ol_pl1_11": null, "ol_pl2_11": null, "iou_nn": 0.36496632270324564, "ol_pl1_nn": 0.40018586800490025, "ol_pl2_nn": 0.80571089732150047, "comp_idx": 24.0, "rel_cd": "1:1", "class_10": "1:1 갱신", "cd_class": "갱신" }, "geometry": { "type": "Polygon", "coordinates": [ [ [ 201543.675880371389212, 545535.981520804809406 ], [ 201541.641652563354, 545534.890697786933742 ], [ 201541.655680495401612, 545532.250738716335036 ], [ 201543.23350860865321, 545528.899080027360469 ], [ 201550.072121087374398, 545529.175421340158209 ], [ 201551.504445867903996, 545530.623050616588444 ], [ 201551.604677269642707, 545534.343630615156144 ], [ 201550.998948411579477, 545535.420425718650222 ], [ 201543.675880371389212, 545535.981520804809406 ] ] ] } },
{ "type": "Feature", "properties": { "area": 53.301411442498491, "poly2_idx": 18, "cut_link": false, "iou_1n": null, "ol_pl1_1n": null, "ol_pl2_1n": null, "iou_n1": null, "ol_pl1_n1": null, "ol_pl2_n1": null, "iou_11": null, "ol_pl1_11": null, "ol_pl2_11": null, "iou_nn": 0.37868657568495329, "ol_pl1_nn": 0.39775213283067884, "ol_pl2_nn": 0.88764408577563902, "comp_idx": 32.0, "rel_cd": "1:1", "class_10": "1:1 갱신", "cd_class": "갱신" }, "geometry": { "type": "Polygon", "coordinates": [ [ [ 201612.540724354825215, 545538.987481471383944 ], [ 201608.00885475857649, 545533.683332880376838 ], [ 201607.903522282722406, 545530.922737838933244 ], [ 201611.521954798168736, 545527.461920499918051 ], [ 201612.250232253951253, 545525.905770358163863 ], [ 201613.930842435947852, 545525.794699052115902 ], [ 201613.860702786128968, 545538.994495439226739 ], [ 201612.540724354825215, 545538.987481471383944 ] ] ] } },
{ "type": "Feature", "properties": { "area": 113.73079365394192, "poly2_idx": 19, "cut_link": false, "iou_1n": null, "ol_pl1_1n": null, "ol_pl2_1n": null, "iou_n1": null, "ol_pl1_n1": null, "ol_pl2_n1": null, "iou_11": null, "ol_pl1_11": null, "ol_pl2_11": null, "iou_nn": 0.81668982040133853, "ol_pl1_nn": 0.90005376453278474, "ol_pl2_nn": 0.89814146912713422, "comp_idx": 23.0, "rel_cd": "1:1", "class_10": "1:1 변화없음", "cd_class": "변화없음" }, "geometry": { "type": "Polygon", "coordinates": [ [ [ 201591.921466121333651, 545535.037867843755521 ], [ 201590.131697709439322, 545533.10833301465027 ], [ 201588.333640067547094, 545532.73877408739645 ], [ 201586.901952866726788, 545531.171146605047397 ], [ 201586.915980788471643, 545528.531187404762022 ], [ 201593.067124620836694, 545522.683797477278858 ], [ 201595.707081432483392, 545522.697825365583412 ], [ 201600.603408570430474, 545527.163899697014131 ], [ 201600.590018286166014, 545529.683860789053142 ], [ 201594.441424892604118, 545535.051258135586977 ], [ 201591.921466121333651, 545535.037867843755521 ] ] ] } },
{ "type": "Feature", "properties": { "area": 298.88528709698807, "poly2_idx": 20, "cut_link": false, "iou_1n": null, "ol_pl1_1n": null, "ol_pl2_1n": null, "iou_n1": null, "ol_pl1_n1": null, "ol_pl2_n1": null, "iou_11": null, "ol_pl1_11": null, "ol_pl2_11": null, "iou_nn": 0.89408057889633985, "ol_pl1_nn": 0.9375633973049744, "ol_pl2_nn": 0.95068521756157143, "comp_idx": 25.0, "rel_cd": "1:1", "class_10": "1:1 변화없음", "cd_class": "변화없음" }, "geometry": { "type": "Polygon", "coordinates": [ [ [ 201522.618838232796406, 545546.669767355080694 ], [ 201515.913614320743363, 545543.874102692469023 ], [ 201515.571474005817436, 545540.512241978780366 ], [ 201518.382439309498295, 545530.927056632936001 ], [ 201521.171087402384728, 545525.541806018096395 ], [ 201522.879753223212902, 545520.150816693436354 ], [ 201524.211208891269052, 545517.997864164412022 ], [ 201526.73116747662425, 545518.011254410259426 ], [ 201534.155742087721592, 545520.930742838652804 ], [ 201534.260436950862641, 545523.811335796373896 ], [ 201531.217764847620856, 545531.835270267911255 ], [ 201528.697806251147995, 545531.821879985160194 ], [ 201526.302946754120057, 545530.849142234772444 ], [ 201524.860419887845637, 545531.321483195526525 ], [ 201524.126403791684425, 545533.95761641964782 ], [ 201528.431029589904938, 545536.860526507021859 ], [ 201528.417001645197161, 545539.500485540134832 ], [ 201525.620064193761209, 545546.445711939944886 ], [ 201522.618838232796406, 545546.669767355080694 ] ] ] } },
{ "type": "Feature", "properties": { "area": 194.28410042171018, "poly2_idx": 21, "cut_link": false, "iou_1n": null, "ol_pl1_1n": null, "ol_pl2_1n": null, "iou_n1": null, "ol_pl1_n1": null, "ol_pl2_n1": null, "iou_11": null, "ol_pl1_11": null, "ol_pl2_11": null, "iou_nn": 0.88504895827189356, "ol_pl1_nn": 0.91886574284329614, "ol_pl2_nn": 0.96007736607685112, "comp_idx": 22.0, "rel_cd": "1:1", "class_10": "1:1 변화없음", "cd_class": "변화없음" }, "geometry": { "type": "Polygon", "coordinates": [ [ [ 201574.54980685148621, 545529.665492739295587 ], [ 201571.207715611642925, 545526.287691021105275 ], [ 201571.343016816827003, 545523.40837320999708 ], [ 201578.702430064615328, 545516.007383776945062 ], [ 201583.520205131731927, 545512.672940933844075 ], [ 201586.040163879137253, 545512.686331164906733 ], [ 201590.215227534557926, 545517.388575904536992 ], [ 201590.201199645205634, 545520.028535113902763 ], [ 201586.579579079319956, 545524.089343128609471 ], [ 201584.296428241708782, 545524.677218855242245 ], [ 201582.239245564851444, 545527.906329030054621 ], [ 201580.67927110864548, 545527.898039814201184 ], [ 201578.871011359733529, 545529.448451209114864 ], [ 201574.54980685148621, 545529.665492739295587 ] ] ] } },
{ "type": "Feature", "properties": { "area": 109.77081027594193, "poly2_idx": 22, "cut_link": false, "iou_1n": null, "ol_pl1_1n": null, "ol_pl2_1n": null, "iou_n1": null, "ol_pl1_n1": null, "ol_pl2_n1": null, "iou_11": null, "ol_pl1_11": null, "ol_pl2_11": null, "iou_nn": 0.81253316538383091, "ol_pl1_nn": 0.93526403743061903, "ol_pl2_nn": 0.86095401755146628, "comp_idx": 21.0, "rel_cd": "1:1", "class_10": "1:1 변화없음", "cd_class": "변화없음" }, "geometry": { "type": "Polygon", "coordinates": [ [ [ 201602.29932190803811, 545524.172872857539915 ], [ 201598.002984930906678, 545519.709986689151265 ], [ 201598.017012821714161, 545517.070027456386015 ], [ 201598.624654581333743, 545515.63323784340173 ], [ 201602.724354413629044, 545511.934974707430229 ], [ 201605.244313213799614, 545511.948364934884012 ], [ 201610.257450339297066, 545517.015067628351972 ], [ 201610.480868002865463, 545520.136294752941467 ], [ 201607.584974277357105, 545523.12094531301409 ], [ 201604.939278744364856, 545524.186900751432404 ], [ 201602.29932190803811, 545524.172872857539915 ] ] ] } },
{ "type": "Feature", "properties": { "area": 461.95745950788495, "poly2_idx": 23, "cut_link": true, "iou_1n": null, "ol_pl1_1n": null, "ol_pl2_1n": null, "iou_n1": null, "ol_pl1_n1": null, "ol_pl2_n1": null, "iou_11": null, "ol_pl1_11": null, "ol_pl2_11": null, "iou_nn": 0.93950623240511588, "ol_pl1_nn": 0.97628345462581401, "ol_pl2_nn": 0.96144951775827991, "comp_idx": 18.0, "rel_cd": "1:1", "class_10": "1:1 변화없음", "cd_class": "변화없음" }, "geometry": { "type": "Polygon", "coordinates": [ [ [ 201501.432748904946493, 545536.477062776102684 ], [ 201492.215218220109819, 545532.228030366357416 ], [ 201492.230521410587244, 545529.348075174260885 ], [ 201494.546191271714633, 545522.640294716577046 ], [ 201494.561494431894971, 545519.760339515167288 ], [ 201498.089897079829825, 545510.658972639939748 ], [ 201506.849115263175918, 545510.825517746852711 ], [ 201508.644622233055998, 545511.675069140968844 ], [ 201508.628043835051358, 545514.795020657242276 ], [ 201509.582289361133007, 545515.880104918265715 ], [ 201517.963022265204927, 545519.524683142197318 ], [ 201517.947719104966382, 545522.404638416483067 ], [ 201513.817413233831758, 545531.862811687751673 ], [ 201512.616157706885133, 545532.096431634621695 ], [ 201512.011704142467352, 545532.933230422437191 ], [ 201507.689862315426581, 545533.270270050968975 ], [ 201505.635230312385829, 545536.019387396983802 ], [ 201501.432748904946493, 545536.477062776102684 ] ] ] } },
{ "type": "Feature", "properties": { "area": 160.71061347254042, "poly2_idx": 24, "cut_link": false, "iou_1n": null, "ol_pl1_1n": null, "ol_pl2_1n": null, "iou_n1": null, "ol_pl1_n1": null, "ol_pl2_n1": null, "iou_11": null, "ol_pl1_11": null, "ol_pl2_11": null, "iou_nn": 0.71702524090377273, "ol_pl1_nn": 0.77786951673871418, "ol_pl2_nn": 0.90164139265662957, "comp_idx": 17.0, "rel_cd": "1:1", "class_10": "1:1 변화없음", "cd_class": "변화없음" }, "geometry": { "type": "Polygon", "coordinates": [ [ [ 201557.418143941438757, 545524.294393098214641 ], [ 201556.593460883828811, 545521.409974282491021 ], [ 201550.871175617561676, 545514.299477682448924 ], [ 201550.884565860178554, 545511.779516726383008 ], [ 201556.189984453143552, 545507.007646785350516 ], [ 201558.709943125752034, 545507.021037 ], [ 201559.302281727665104, 545508.464202847797424 ], [ 201565.869016741082305, 545514.739175889524631 ], [ 201565.85562649028725, 545517.259136887383647 ], [ 201564.27907364469138, 545520.370799393858761 ], [ 201560.178736313246191, 545524.189060482312925 ], [ 201557.418143941438757, 545524.294393098214641 ] ] ] } },
{ "type": "Feature", "properties": { "area": 97.494851947431854, "poly2_idx": 25, "cut_link": false, "iou_1n": null, "ol_pl1_1n": null, "ol_pl2_1n": null, "iou_n1": null, "ol_pl1_n1": null, "ol_pl2_n1": null, "iou_11": null, "ol_pl1_11": null, "ol_pl2_11": null, "iou_nn": 0.81981328673135501, "ol_pl1_nn": 0.86735766447131246, "ol_pl2_nn": 0.93732745476754542, "comp_idx": 20.0, "rel_cd": "1:1", "class_10": "1:1 변화없음", "cd_class": "변화없음" }, "geometry": { "type": "Polygon", "coordinates": [ [ [ 201593.468564773036633, 545514.885830858838744 ], [ 201592.159426093829097, 545512.838848442188464 ], [ 201589.407122821517987, 545511.384205202222802 ], [ 201589.421788319392363, 545508.624247848405503 ], [ 201592.565967195900157, 545504.080896660685539 ], [ 201594.610397226060741, 545503.25174932659138 ], [ 201597.130356004025089, 545503.265139532042667 ], [ 201601.306057388021145, 545507.847386138746515 ], [ 201601.292029524425743, 545510.487345379311591 ], [ 201596.229157253459562, 545514.780498210457154 ], [ 201593.468564773036633, 545514.885830858838744 ] ] ] } },
{ "type": "Feature", "properties": { "area": 43.048647772920475, "poly2_idx": 26, "cut_link": false, "iou_1n": null, "ol_pl1_1n": null, "ol_pl2_1n": null, "iou_n1": null, "ol_pl1_n1": null, "ol_pl2_n1": null, "iou_11": null, "ol_pl1_11": null, "ol_pl2_11": null, "iou_nn": 0.48637747069679771, "ol_pl1_nn": 0.50536150138050184, "ol_pl2_nn": 0.92830275586085498, "comp_idx": 19.0, "rel_cd": "1:1", "class_10": "1:1 갱신", "cd_class": "갱신" }, "geometry": { "type": "Polygon", "coordinates": [ [ [ 201612.669526110461447, 545514.747855413588695 ], [ 201608.854456455766922, 545510.047523460234515 ], [ 201608.869121948315296, 545507.287566048442386 ], [ 201612.37010685671703, 545503.346118388348259 ], [ 201614.05071703493013, 545503.235047042020597 ], [ 201613.989504542812938, 545514.754869346739724 ], [ 201612.669526110461447, 545514.747855413588695 ] ] ] } },
{ "type": "Feature", "properties": { "area": 182.66333779493439, "poly2_idx": 27, "cut_link": false, "iou_1n": null, "ol_pl1_1n": null, "ol_pl2_1n": null, "iou_n1": null, "ol_pl1_n1": null, "ol_pl2_n1": null, "iou_11": null, "ol_pl1_11": null, "ol_pl2_11": null, "iou_nn": 0.83999918634683246, "ol_pl1_nn": 0.90279459336994383, "ol_pl2_nn": 0.9235267505328455, "comp_idx": 15.0, "rel_cd": "1:1", "class_10": "1:1 변화없음", "cd_class": "변화없음" }, "geometry": { "type": "Polygon", "coordinates": [ [ [ 201569.363625213416526, 545511.99770987755619 ], [ 201566.847492295579286, 545511.264330791076645 ], [ 201560.999470185575774, 545505.233179826522246 ], [ 201561.012860406335676, 545502.713218842865899 ], [ 201563.541108269739198, 545501.166633194661699 ], [ 201568.848439765482908, 545496.034768695244566 ], [ 201571.488396506436402, 545496.048796509043314 ], [ 201578.524284131883178, 545504.366288513294421 ], [ 201578.510256279754685, 545507.006247688666917 ], [ 201572.244215655839071, 545511.893014851026237 ], [ 201569.363625213416526, 545511.99770987755619 ] ] ] } },
{ "type": "Feature", "properties": { "area": 188.12090755525202, "poly2_idx": 28, "cut_link": false, "iou_1n": null, "ol_pl1_1n": null, "ol_pl2_1n": null, "iou_n1": null, "ol_pl1_n1": null, "ol_pl2_n1": null, "iou_11": null, "ol_pl1_11": null, "ol_pl2_11": null, "iou_nn": 0.88340349664272055, "ol_pl1_nn": 0.92475152822839135, "ol_pl2_nn": 0.95182436101679324, "comp_idx": 16.0, "rel_cd": "1:1", "class_10": "1:1 변화없음", "cd_class": "변화없음" }, "geometry": { "type": "Polygon", "coordinates": [ [ [ 201539.361566788051277, 545512.318294951459393 ], [ 201535.058216119534336, 545509.175388668198138 ], [ 201534.71543804142857, 545505.933526035048999 ], [ 201541.83294190914603, 545498.89125592156779 ], [ 201546.290085001062835, 545495.674898382043466 ], [ 201548.810043646604754, 545495.688288565608673 ], [ 201551.677243822254241, 545498.103554449044168 ], [ 201553.582546858378919, 545500.87371374538634 ], [ 201553.569156644924078, 545503.393674707156606 ], [ 201546.579302244674182, 545508.996604825137183 ], [ 201544.052329673228087, 545510.303194143692963 ], [ 201542.121521474560723, 545512.332960441010073 ], [ 201539.361566788051277, 545512.318294951459393 ] ] ] } },
{ "type": "Feature", "properties": { "area": 99.050048561690588, "poly2_idx": 29, "cut_link": false, "iou_1n": null, "ol_pl1_1n": null, "ol_pl2_1n": null, "iou_n1": null, "ol_pl1_n1": null, "ol_pl2_n1": null, "iou_11": null, "ol_pl1_11": null, "ol_pl2_11": null, "iou_nn": 0.72818865067717886, "ol_pl1_nn": 0.81276105221814632, "ol_pl2_nn": 0.87496979726853308, "comp_idx": 11.0, "rel_cd": "1:1", "class_10": "1:1 변화없음", "cd_class": "변화없음" }, "geometry": { "type": "Polygon", "coordinates": [ [ [ 201602.760061698354548, 545505.215078446082771 ], [ 201598.823081112088403, 545500.874103394453414 ], [ 201598.837746575358324, 545498.114146012347192 ], [ 201602.574264083901653, 545495.01396065170411 ], [ 201605.936759664444253, 545494.551821634988301 ], [ 201607.248448920785449, 545496.118811463704333 ], [ 201608.807785794284428, 545496.247098774183542 ], [ 201608.914393630577251, 545498.767697518575005 ], [ 201612.153065425460227, 545499.024909777101129 ], [ 201612.37584551886539, 545502.266135049634613 ], [ 201611.650118621619185, 545503.342292615445331 ], [ 201607.926991270185681, 545503.922516864258796 ], [ 201605.400018536223797, 545505.22910628397949 ], [ 201602.760061698354548, 545505.215078446082771 ] ] ] } },
{ "type": "Feature", "properties": { "area": 105.70281999199391, "poly2_idx": 30, "cut_link": false, "iou_1n": null, "ol_pl1_1n": null, "ol_pl2_1n": null, "iou_n1": null, "ol_pl1_n1": null, "ol_pl2_n1": null, "iou_11": null, "ol_pl1_11": null, "ol_pl2_11": null, "iou_nn": 0.87897547294665135, "ol_pl1_nn": 0.92824234661360128, "ol_pl2_nn": 0.94305521082817467, "comp_idx": 10.0, "rel_cd": "1:1", "class_10": "1:1 변화없음", "cd_class": "변화없음" }, "geometry": { "type": "Polygon", "coordinates": [ [ [ 201582.252512400242267, 545502.826079126796685 ], [ 201577.601282341231126, 545497.401295116520487 ], [ 201577.614672537456499, 545494.88133408757858 ], [ 201581.833732602506643, 545491.303706712787971 ], [ 201582.320101019955473, 545490.106275772326626 ], [ 201584.96005780014093, 545490.12030356854666 ], [ 201589.971282048150897, 545495.547000469174236 ], [ 201589.957891849131556, 545498.066961532807909 ], [ 201584.772471144387964, 545502.839469330152497 ], [ 201582.252512400242267, 545502.826079126796685 ] ] ] } },
{ "type": "Feature", "properties": { "area": 142.44427947491903, "poly2_idx": 31, "cut_link": false, "iou_1n": null, "ol_pl1_1n": null, "ol_pl2_1n": null, "iou_n1": null, "ol_pl1_n1": null, "ol_pl2_n1": null, "iou_11": null, "ol_pl1_11": null, "ol_pl2_11": null, "iou_nn": 0.81522773957812977, "ol_pl1_nn": 0.83428981019547055, "ol_pl2_nn": 0.97273724560925934, "comp_idx": 14.0, "rel_cd": "1:1", "class_10": "1:1 변화없음", "cd_class": "변화없음" }, "geometry": { "type": "Polygon", "coordinates": [ [ [ 201556.953331438853638, 545498.851598935900256 ], [ 201556.482266114500817, 545497.169074443983845 ], [ 201554.694410576223163, 545494.879545339033939 ], [ 201549.201281511719571, 545489.810292563284747 ], [ 201549.214671687746886, 545487.290331612108275 ], [ 201551.879495824017795, 545482.624431905220263 ], [ 201554.519452516717138, 545482.638459680136293 ], [ 201560.728744084510254, 545488.431527054519393 ], [ 201564.06700965584605, 545492.52931745047681 ], [ 201564.052981838525739, 545495.16927658545319 ], [ 201561.522183467634022, 545497.195854818215594 ], [ 201561.273260600923095, 545498.874553552712314 ], [ 201556.953331438853638, 545498.851598935900256 ] ] ] } },
{ "type": "Feature", "properties": { "area": 91.230874101759582, "poly2_idx": 32, "cut_link": false, "iou_1n": null, "ol_pl1_1n": null, "ol_pl2_1n": null, "iou_n1": null, "ol_pl1_n1": null, "ol_pl2_n1": null, "iou_11": null, "ol_pl1_11": null, "ol_pl2_11": null, "iou_nn": 0.65883453209923815, "ol_pl1_nn": 0.69887993616941124, "ol_pl2_nn": 0.9199878661575237, "comp_idx": 9.0, "rel_cd": "1:1", "class_10": "1:1 갱신", "cd_class": "갱신" }, "geometry": { "type": "Polygon", "coordinates": [ [ [ 201594.661407527688425, 545493.651897609583102 ], [ 201590.726339802320581, 545488.950928207836114 ], [ 201589.407636659976561, 545488.703918020706624 ], [ 201588.334668234019773, 545487.378199777565897 ], [ 201588.348058403964387, 545484.858238719520159 ], [ 201592.446482815081254, 545481.39997177652549 ], [ 201594.966441587166628, 545481.413361921906471 ], [ 201599.62149759195745, 545486.118157071061432 ], [ 201599.608107419655425, 545488.638118160190061 ], [ 201597.672835756704444, 545491.507871654815972 ], [ 201597.543910929351114, 545493.187208083458245 ], [ 201597.181366304401308, 545493.665287787443958 ], [ 201594.661407527688425, 545493.651897609583102 ] ] ] } },
{ "type": "Feature", "properties": { "area": 123.70275257667653, "poly2_idx": 33, "cut_link": false, "iou_1n": null, "ol_pl1_1n": null, "ol_pl2_1n": null, "iou_n1": null, "ol_pl1_n1": null, "ol_pl2_n1": null, "iou_11": null, "ol_pl1_11": null, "ol_pl2_11": null, "iou_nn": 0.90212460572327546, "ol_pl1_nn": 0.91227954727137517, "ol_pl2_nn": 0.98781131211193374, "comp_idx": 13.0, "rel_cd": "1:1", "class_10": "1:1 변화없음", "cd_class": "변화없음" }, "geometry": { "type": "Polygon", "coordinates": [ [ [ 201572.701767039776314, 545493.535211772308685 ], [ 201567.21501413200167, 545487.265977476607077 ], [ 201567.110956777323736, 545484.265386278158985 ], [ 201571.211931596451905, 545480.327126840013079 ], [ 201574.813785497361096, 545479.986261183745228 ], [ 201580.538621688814601, 545486.616765173035674 ], [ 201580.525231513311155, 545489.136726209893823 ], [ 201575.461721827596193, 545493.549877204466611 ], [ 201572.701767039776314, 545493.535211772308685 ] ] ] } },
{ "type": "Feature", "properties": { "area": 120.99556519933452, "poly2_idx": 34, "cut_link": false, "iou_1n": null, "ol_pl1_1n": null, "ol_pl2_1n": null, "iou_n1": null, "ol_pl1_n1": null, "ol_pl2_n1": null, "iou_11": null, "ol_pl1_11": null, "ol_pl2_11": null, "iou_nn": 0.9031959940495502, "ol_pl1_nn": 0.93717074587871541, "ol_pl2_nn": 0.96141090352264658, "comp_idx": 8.0, "rel_cd": "1:1", "class_10": "1:1 변화없음", "cd_class": "변화없음" }, "geometry": { "type": "Polygon", "coordinates": [ [ [ 201582.710701235308079, 545484.348277699784376 ], [ 201578.058195811376208, 545479.163490066770464 ], [ 201578.072223585564643, 545476.523530894191936 ], [ 201581.693843905348331, 545472.462722730007954 ], [ 201583.981458080059383, 545471.034859859966673 ], [ 201586.741412899864372, 545471.049525224138051 ], [ 201591.275833252933808, 545475.873680800898001 ], [ 201591.261805481539341, 545478.513640012475662 ], [ 201585.230659980588825, 545484.361667852150276 ], [ 201582.710701235308079, 545484.348277699784376 ] ] ] } },
{ "type": "Feature", "properties": { "area": 94.586064592929418, "poly2_idx": 35, "cut_link": false, "iou_1n": null, "ol_pl1_1n": null, "ol_pl2_1n": null, "iou_n1": null, "ol_pl1_n1": null, "ol_pl2_n1": null, "iou_11": null, "ol_pl1_11": null, "ol_pl2_11": null, "iou_nn": 0.84827481352246847, "ol_pl1_nn": 0.86916163516209044, "ol_pl2_nn": 0.97245117730292663, "comp_idx": 7.0, "rel_cd": "1:1", "class_10": "1:1 변화없음", "cd_class": "변화없음" }, "geometry": { "type": "Polygon", "coordinates": [ [ [ 201604.931379716930678, 545480.506299691856839 ], [ 201600.516957357205683, 545475.682781649171375 ], [ 201600.530985120130936, 545473.04282240930479 ], [ 201604.271328300674213, 545469.222648051683791 ], [ 201606.791287104657385, 545469.236038162955083 ], [ 201612.161868087277981, 545474.784646102460101 ], [ 201612.265925481624436, 545477.785237445379607 ], [ 201609.612578472384484, 545480.291170803480782 ], [ 201604.931379716930678, 545480.506299691856839 ] ] ] } },
{ "type": "Feature", "properties": { "area": 116.092377423522, "poly2_idx": 36, "cut_link": false, "iou_1n": null, "ol_pl1_1n": null, "ol_pl2_1n": null, "iou_n1": null, "ol_pl1_n1": null, "ol_pl2_n1": null, "iou_11": null, "ol_pl1_11": null, "ol_pl2_11": null, "iou_nn": 0.84414770593103949, "ol_pl1_nn": 0.91918567428678766, "ol_pl2_nn": 0.91182029720149327, "comp_idx": 3.0, "rel_cd": "1:1", "class_10": "1:1 변화없음", "cd_class": "변화없음" }, "geometry": { "type": "Polygon", "coordinates": [ [ [ 201562.44506127765635, 545481.600559722981416 ], [ 201556.475128095189575, 545475.92876577633433 ], [ 201556.488518232887145, 545473.408804803271778 ], [ 201561.554578217503149, 545468.51566122204531 ], [ 201564.31453297144617, 545468.530326580628753 ], [ 201568.847040349850431, 545473.714476454420947 ], [ 201569.062169009936042, 545478.395679286215454 ], [ 201565.445012099371525, 545481.616500371252187 ], [ 201562.44506127765635, 545481.600559722981416 ] ] ] } },
{ "type": "Feature", "properties": { "area": 478.20061239579678, "poly2_idx": 37, "cut_link": false, "iou_1n": null, "ol_pl1_1n": null, "ol_pl2_1n": null, "iou_n1": null, "ol_pl1_n1": null, "ol_pl2_n1": null, "iou_11": null, "ol_pl1_11": null, "ol_pl2_11": null, "iou_nn": 0.94328749164828485, "ol_pl1_nn": 0.97025327643937842, "ol_pl2_nn": 0.97137978243936685, "comp_idx": 12.0, "rel_cd": "1:1", "class_10": "1:1 변화없음", "cd_class": "변화없음" }, "geometry": { "type": "Polygon", "coordinates": [ [ [ 201513.178280703636119, 545494.05893548252061 ], [ 201504.553088299027877, 545491.253069196711294 ], [ 201505.062411261780653, 545485.735705507686362 ], [ 201509.958613791764947, 545467.641492123366334 ], [ 201513.917911029042443, 545467.782531854696572 ], [ 201521.708218398824101, 545469.623949481290765 ], [ 201521.812275797507027, 545472.624540528282523 ], [ 201520.708063777216012, 545477.178731103427708 ], [ 201521.063594476232538, 545478.020630938233808 ], [ 201526.464780971116852, 545477.809327809372917 ], [ 201530.061533685890026, 545478.428447264479473 ], [ 201534.013179492525524, 545480.009464708855376 ], [ 201533.875327919929987, 545483.36877496202942 ], [ 201531.797103796066949, 545490.557823611074127 ], [ 201525.316572643117979, 545490.643389883567579 ], [ 201520.407493184669875, 545488.577278845361434 ], [ 201519.947905147273559, 545484.734787963563576 ], [ 201518.870473410905106, 545484.249056780245155 ], [ 201515.818874911259627, 545493.952965151402168 ], [ 201513.178280703636119, 545494.05893548252061 ] ] ] } },
{ "type": "Feature", "properties": { "area": 19.339131669378887, "poly2_idx": 38, "cut_link": false, "iou_1n": null, "ol_pl1_1n": null, "ol_pl2_1n": null, "iou_n1": null, "ol_pl1_n1": null, "ol_pl2_n1": null, "iou_11": null, "ol_pl1_11": null, "ol_pl2_11": null, "iou_nn": 0.15477438526535109, "ol_pl1_nn": 0.15783561834048934, "ol_pl2_nn": 0.88864252259815391, "comp_idx": 6.0, "rel_cd": "1:1", "class_10": "1:1 갱신", "cd_class": "갱신" }, "geometry": { "type": "Polygon", "coordinates": [ [ [ 201612.91501283730031, 545468.548568112775683 ], [ 201611.009709576697787, 545465.778408707352355 ], [ 201611.024374936067034, 545463.018451289855875 ], [ 201612.953907923045335, 545461.22868103266228 ], [ 201614.27388635603711, 545461.235694888629951 ], [ 201614.234991269826423, 545468.555581978638656 ], [ 201612.91501283730031, 545468.548568112775683 ] ] ] } },
{ "type": "Feature", "properties": { "area": 112.24759385948201, "poly2_idx": 39, "cut_link": false, "iou_1n": null, "ol_pl1_1n": null, "ol_pl2_1n": null, "iou_n1": null, "ol_pl1_n1": null, "ol_pl2_n1": null, "iou_11": null, "ol_pl1_11": null, "ol_pl2_11": null, "iou_nn": 0.79971505141793353, "ol_pl1_nn": 0.84297037101674255, "ol_pl2_nn": 0.93970471516518683, "comp_idx": 2.0, "rel_cd": "1:1", "class_10": "1:1 변화없음", "cd_class": "변화없음" }, "geometry": { "type": "Polygon", "coordinates": [ [ [ 201572.210811046767049, 545473.012341091642156 ], [ 201569.709981094289105, 545469.399006675696 ], [ 201566.964054070325801, 545466.744382171425968 ], [ 201566.978081806912087, 545464.104423027136363 ], [ 201572.284775489999447, 545459.092556440504268 ], [ 201574.924732240760932, 545459.10658414743375 ], [ 201578.626180221152026, 545462.606296648969874 ], [ 201578.612152489280561, 545465.246255825040862 ], [ 201577.406433520402061, 545466.319862883654423 ], [ 201577.384116651286604, 545470.519797930493951 ], [ 201574.850767796859145, 545473.026368838269264 ], [ 201572.210811046767049, 545473.012341091642156 ] ] ] } },
{ "type": "Feature", "properties": { "area": 94.830861973117678, "poly2_idx": 40, "cut_link": false, "iou_1n": null, "ol_pl1_1n": null, "ol_pl2_1n": null, "iou_n1": null, "ol_pl1_n1": null, "ol_pl2_n1": null, "iou_11": null, "ol_pl1_11": null, "ol_pl2_11": null, "iou_nn": 0.82049710473063275, "ol_pl1_nn": 0.87948227042445959, "ol_pl2_nn": 0.92443590795248287, "comp_idx": 5.0, "rel_cd": "1:1", "class_10": "1:1 변화없음", "cd_class": "변화없음" }, "geometry": { "type": "Polygon", "coordinates": [ [ [ 201596.467630106257275, 545469.901191350654699 ], [ 201591.929383948387112, 545465.7970246541081 ], [ 201591.943411682470469, 545463.157065440434963 ], [ 201596.768200485617854, 545458.502642658422701 ], [ 201599.768789044057485, 545458.398585085873492 ], [ 201603.111518260877347, 545461.656388512463309 ], [ 201603.572381686564768, 545465.25888343481347 ], [ 201599.227584963606205, 545469.915856712032109 ], [ 201596.467630106257275, 545469.901191350654699 ] ] ] } },
{ "type": "Feature", "properties": { "area": 14.075950078385066, "poly2_idx": 41, "cut_link": false, "iou_1n": null, "ol_pl1_1n": null, "ol_pl2_1n": null, "iou_n1": null, "ol_pl1_n1": null, "ol_pl2_n1": null, "iou_11": null, "ol_pl1_11": null, "ol_pl2_11": null, "iou_nn": 0.10882686600585213, "ol_pl1_nn": 0.1133710642114463, "ol_pl2_nn": 0.73082609007180599, "comp_idx": 4.0, "rel_cd": "1:1", "class_10": "1:1 갱신", "cd_class": "갱신" }, "geometry": { "type": "Polygon", "coordinates": [ [ [ 201604.918502693326445, 545460.345973236951977 ], [ 201603.486177720478736, 545458.89834398671519 ], [ 201603.493829202634515, 545457.458366216509603 ], [ 201609.253735045524081, 545457.488972110790201 ], [ 201609.246721187315416, 545458.808951743063517 ], [ 201607.679095199942822, 545460.240640421514399 ], [ 201604.918502693326445, 545460.345973236951977 ] ] ] } },
{ "type": "Feature", "properties": { "area": 231.34954894350255, "poly2_idx": 42, "cut_link": false, "iou_1n": null, "ol_pl1_1n": null, "ol_pl2_1n": null, "iou_n1": null, "ol_pl1_n1": null, "ol_pl2_n1": null, "iou_11": null, "ol_pl1_11": null, "ol_pl2_11": null, "iou_nn": 0.37009960939805514, "ol_pl1_nn": 0.37681585619386632, "ol_pl2_nn": 0.9540535862980658, "comp_idx": 0.0, "rel_cd": "1:1", "class_10": "1:1 갱신", "cd_class": "갱신" }, "geometry": { "type": "Polygon", "coordinates": [ [ [ 201548.807368974143174, 545473.607993092271499 ], [ 201538.541736483748537, 545463.353315523243509 ], [ 201534.344355957116932, 545462.851006143493578 ], [ 201530.28801505942829, 545458.389395836275071 ], [ 201530.295028919295873, 545457.069416317157447 ], [ 201547.814741241862066, 545457.162509240908548 ], [ 201547.93091353320051, 545457.883135706186295 ], [ 201556.764858923706925, 545466.570185986813158 ], [ 201556.630195521080168, 545469.329505618894473 ], [ 201553.253034754772671, 545472.551601943327114 ], [ 201551.447325657267356, 545473.622020839597099 ], [ 201548.807368974143174, 545473.607993092271499 ] ] ] } },
{ "type": "Feature", "properties": { "area": 23.579914084921885, "poly2_idx": 43, "cut_link": false, "iou_1n": null, "ol_pl1_1n": null, "ol_pl2_1n": null, "iou_n1": null, "ol_pl1_n1": null, "ol_pl2_n1": null, "iou_11": null, "ol_pl1_11": null, "ol_pl2_11": null, "iou_nn": 0.10341974885466093, "ol_pl1_nn": 0.10388156335145203, "ol_pl2_nn": 0.95878577041727431, "comp_idx": 1.0, "rel_cd": "1:1", "class_10": "1:1 갱신", "cd_class": "갱신" }, "geometry": { "type": "Polygon", "coordinates": [ [ [ 201559.9224275831657, 545459.50687383802142 ], [ 201557.163110465800855, 545459.372210365603678 ], [ 201556.207589575788006, 545458.527122391038574 ], [ 201556.214603433123557, 545457.207142835832201 ], [ 201567.13442439652863, 545457.265166508033872 ], [ 201567.127410539018456, 545458.58514607953839 ], [ 201565.802331186539959, 545459.538117369054817 ], [ 201559.9224275831657, 545459.50687383802142 ] ] ] } }
]
}
