{
"type": "FeatureCollection",
"crs": { "type": "name", "properties": { "name": "urn:ogc:def:crs:EPSG::5186" } },
"features": [
{ "type": "Feature", "properties": { "명칭": null, "구분": "연립주택", "종류": "연립주택", "용도": "주택", "주기": "영창드림빌", "층수": 5.0, "UFID": "100037705091B00119624621233011527", "area": 585.74994451515681, "poly1_idx": 1, "cut_link": false, "iou_1n": null, "ol_pl1_1n": null, "ol_pl2_1n": null, "iou_n1": null, "ol_pl1_n1": null, "ol_pl2_n1": null, "iou_11": null, "ol_pl1_11": null, "ol_pl2_11": null, "iou_nn": 0.37009960939805514, "ol_pl1_nn": 0.37681585619386632, "ol_pl2_nn": 0.9540535862980658, "comp_idx": 0.0, "rel_cd": "1:1", "class_10": "1:1 갱신", "cd_class": "갱신" }, "geometry": { "type": "MultiPolygon", "coordinates": [ [ [ [ 201550.980100000277162, 545472.740100000053644 ], [ 201551.450000000186265, 545473.089999999850988 ], [ 201557.090099999681115, 545467.540100000798702 ], [ 201534.790000000037253, 545443.550100000575185 ], [ 201534.140100000426173, 545444.119999999180436 ], [ 201530.760099999606609, 545440.259999999776483 ], [ 201531.129900000058115, 545439.930099999532104 ], [ 201525.089999999850988, 545433.040100000798702 ], [ 201523.590099999681115, 545434.300000000745058 ], [ 201524.069899999536574, 545434.780099999159575 ], [ 201522.610100000165403, 545436.160099999979138 ], [ 201523.169999999925494, 545436.740100000053644 ], [ 201520.550200000405312, 545439.120100000873208 ], [ 201521.300099999643862, 545439.980000000447035 ], [ 201520.040000000037253, 545441.25 ], [ 201520.589999999850988, 545441.900100000202656 ], [ 201519.400000000372529, 545443.199999999254942 ], [ 201520.490199999883771, 545444.160000000149012 ], [ 201517.919999999925494, 545446.769999999552965 ], [ 201519.339999999850988, 545448.350099999457598 ], [ 201516.830099999904633, 545450.640100000426173 ], [ 201521.700199999846518, 545456.11009999923408 ], [ 201525.700100000016391, 545452.089900000020862 ], [ 201526.21999999973923, 545452.820000000298023 ], [ 201525.57010000012815, 545453.609999999403954 ], [ 201534.53000000026077, 545463.28999999910593 ], [ 201535.220099999569356, 545462.730100000277162 ], [ 201535.769999999552965, 545463.460100000724196 ], [ 201537.460099999792874, 545462.030099999159575 ], [ 201548.940100000239909, 545474.390100000426173 ], [ 201550.980100000277162, 545472.740100000053644 ] ] ] ] } },
{ "type": "Feature", "properties": { "명칭": null, "구분": "연립주택", "종류": "연립주택", "용도": "주택", "주기": "현대빌라트", "층수": 4.0, "UFID": "100037705091B00114675810314915806", "area": 217.63328701357051, "poly1_idx": 2, "cut_link": false, "iou_1n": null, "ol_pl1_1n": null, "ol_pl2_1n": null, "iou_n1": null, "ol_pl1_n1": null, "ol_pl2_n1": null, "iou_11": null, "ol_pl1_11": null, "ol_pl2_11": null, "iou_nn": 0.10341974885466093, "ol_pl1_nn": 0.10388156335145203, "ol_pl2_nn": 0.95878577041727431, "comp_idx": 1.0, "rel_cd": "1:1", "class_10": "1:1 갱신", "cd_class": "갱신" }, "geometry": { "type": "MultiPolygon", "coordinates": [ [ [ [ 201561.230100000277162, 545443.779999999329448 ], [ 201549.990100000053644, 545454.259999999776483 ], [ 201559.769999999552965, 545464.589999999850988 ], [ 201570.900000000372529, 545454.350099999457598 ], [ 201561.230100000277162, 545443.779999999329448 ] ] ] ] } },
{ "type": "Feature", "properties": { "명칭": null, "구분": "주택", "종류": "일반주택", "용도": "주택", "주기": null, "층수": 3.0, "UFID": "100037705091B00111199305670533950", "area": 125.12847051608549, "poly1_idx": 3, "cut_link": false, "iou_1n": null, "ol_pl1_1n": null, "ol_pl2_1n": null, "iou_n1": null, "ol_pl1_n1": null, "ol_pl2_n1": null, "iou_11": null, "ol_pl1_11": null, "ol_pl2_11": null, "iou_nn": 0.79971505141793353, "ol_pl1_nn": 0.84297037101674255, "ol_pl2_nn": 0.93970471516518683, "comp_idx": 2.0, "rel_cd": "1:1", "class_10": "1:1 변화없음", "cd_class": "변화없음" }, "geometry": { "type": "MultiPolygon", "coordinates": [ [ [ [ 201573.880099999718368, 545456.760099999606609 ], [ 201566.269999999552965, 545464.810000000521541 ], [ 201571.999900000169873, 545470.660000000149012 ], [ 201571.290000000037253, 545471.240000000223517 ], [ 201573.670099999755621, 545474.030099999159575 ], [ 201579.020100000314415, 545468.939999999478459 ], [ 201577.580000000074506, 545467.220100000500679 ], [ 201580.690000000409782, 545464.100199999287724 ], [ 201573.880099999718368, 545456.760099999606609 ] ] ] ] } },
{ "type": "Feature", "properties": { "명칭": null, "구분": "연립주택", "종류": "연립주택", "용도": "주택", "주기": "효림빌", "층수": 5.0, "UFID": "100037705091B00111802925174697605", "area": 115.16213649356405, "poly1_idx": 4, "cut_link": false, "iou_1n": null, "ol_pl1_1n": null, "ol_pl2_1n": null, "iou_n1": null, "ol_pl1_n1": null, "ol_pl2_n1": null, "iou_11": null, "ol_pl1_11": null, "ol_pl2_11": null, "iou_nn": 0.84414770593103949, "ol_pl1_nn": 0.91918567428678766, "ol_pl2_nn": 0.91182029720149327, "comp_idx": 3.0, "rel_cd": "1:1", "class_10": "1:1 변화없음", "cd_class": "변화없음" }, "geometry": { "type": "MultiPolygon", "coordinates": [ [ [ [ 201563.049999999813735, 545466.800100000575185 ], [ 201556.150100000202656, 545473.540100000798702 ], [ 201564.200000000186265, 545482.470000000670552 ], [ 201570.099999999627471, 545477.480100000277162 ], [ 201569.009999999776483, 545476.009999999776483 ], [ 201570.170199999585748, 545474.86009999923408 ], [ 201563.049999999813735, 545466.800100000575185 ] ] ] ] } },
{ "type": "Feature", "properties": { "명칭": null, "구분": "주택", "종류": "일반주택", "용도": "주택", "주기": null, "층수": 3.0, "UFID": "100037705091B00113175624536243156", "area": 146.77797550424643, "poly1_idx": 5, "cut_link": false, "iou_1n": null, "ol_pl1_1n": null, "ol_pl2_1n": null, "iou_n1": null, "ol_pl1_n1": null, "ol_pl2_n1": null, "iou_11": null, "ol_pl1_11": null, "ol_pl2_11": null, "iou_nn": null, "ol_pl1_nn": null, "ol_pl2_nn": null, "comp_idx": 45.0, "rel_cd": "1:0", "class_10": "소멸", "cd_class": "소멸" }, "geometry": { "type": "MultiPolygon", "coordinates": [ [ [ [ 201589.519899999722838, 545440.740100000053644 ], [ 201579.500099999830127, 545451.040100000798702 ], [ 201587.000099999830127, 545458.759899999946356 ], [ 201596.160099999979138, 545448.929999999701977 ], [ 201592.170099999755621, 545444.820000000298023 ], [ 201592.759999999776483, 545444.200099999085069 ], [ 201589.519899999722838, 545440.740100000053644 ] ] ] ] } },
{ "type": "Feature", "properties": { "명칭": null, "구분": "주택", "종류": "일반주택", "용도": "주택", "주기": null, "층수": 3.0, "UFID": "100037705091B00114183007125902888", "area": 90.738069995055, "poly1_idx": 6, "cut_link": false, "iou_1n": null, "ol_pl1_1n": null, "ol_pl2_1n": null, "iou_n1": null, "ol_pl1_n1": null, "ol_pl2_n1": null, "iou_11": null, "ol_pl1_11": null, "ol_pl2_11": null, "iou_nn": 0.10882686600585213, "ol_pl1_nn": 0.1133710642114463, "ol_pl2_nn": 0.73082609007180599, "comp_idx": 4.0, "rel_cd": "1:1", "class_10": "1:1 갱신", "cd_class": "갱신" }, "geometry": { "type": "MultiPolygon", "coordinates": [ [ [ [ 201607.82010000012815, 545448.380100000649691 ], [ 201601.129999999888241, 545454.580000000074506 ], [ 201608.010099999606609, 545461.929999999701977 ], [ 201614.540000000037253, 545455.780099999159575 ], [ 201607.82010000012815, 545448.380100000649691 ] ] ] ] } },
{ "type": "Feature", "properties": { "명칭": null, "구분": "주택", "종류": "일반주택", "용도": "주택", "주기": null, "층수": 3.0, "UFID": "100037705091B00114485694416883395", "area": 99.678023012023118, "poly1_idx": 7, "cut_link": false, "iou_1n": null, "ol_pl1_1n": null, "ol_pl2_1n": null, "iou_n1": null, "ol_pl1_n1": null, "ol_pl2_n1": null, "iou_11": null, "ol_pl1_11": null, "ol_pl2_11": null, "iou_nn": 0.82049710473063275, "ol_pl1_nn": 0.87948227042445959, "ol_pl2_nn": 0.92443590795248287, "comp_idx": 5.0, "rel_cd": "1:1", "class_10": "1:1 변화없음", "cd_class": "변화없음" }, "geometry": { "type": "MultiPolygon", "coordinates": [ [ [ [ 201598.889999999664724, 545456.590099999681115 ], [ 201593.330000000074506, 545462.439999999478459 ], [ 201593.570000000298023, 545462.950099999085069 ], [ 201591.639999999664724, 545464.720200000330806 ], [ 201598.270100000314415, 545470.919999999925494 ], [ 201605.480100000277162, 545464.150000000372529 ], [ 201598.889999999664724, 545456.590099999681115 ] ] ] ] } },
{ "type": "Feature", "properties": { "명칭": null, "구분": "연립주택", "종류": "연립주택", "용도": "주택", "주기": "모던탑빌", "층수": 3.0, "UFID": "100037705091B00114378900645642976", "area": 108.88274099488297, "poly1_idx": 8, "cut_link": false, "iou_1n": null, "ol_pl1_1n": null, "ol_pl2_1n": null, "iou_n1": null, "ol_pl1_n1": null, "ol_pl2_n1": null, "iou_11": null, "ol_pl1_11": null, "ol_pl2_11": null, "iou_nn": 0.15477438526535109, "ol_pl1_nn": 0.15783561834048934, "ol_pl2_nn": 0.88864252259815391, "comp_idx": 6.0, "rel_cd": "1:1", "class_10": "1:1 갱신", "cd_class": "갱신" }, "geometry": { "type": "MultiPolygon", "coordinates": [ [ [ [ 201617.000099999830127, 545457.320000000298023 ], [ 201609.889999999664724, 545464.230100000277162 ], [ 201617.290000000037253, 545472.03999999910593 ], [ 201624.700000000186265, 545465.050100000575185 ], [ 201617.000099999830127, 545457.320000000298023 ] ] ] ] } },
{ "type": "Feature", "properties": { "명칭": null, "구분": "연립주택", "종류": "연립주택", "용도": "주택", "주기": "아람이네집", "층수": 3.0, "UFID": "100037705091B00116301063415442051", "area": 105.82649549722868, "poly1_idx": 9, "cut_link": false, "iou_1n": null, "ol_pl1_1n": null, "ol_pl2_1n": null, "iou_n1": null, "ol_pl1_n1": null, "ol_pl2_n1": null, "iou_11": null, "ol_pl1_11": null, "ol_pl2_11": null, "iou_nn": 0.84827481352246847, "ol_pl1_nn": 0.86916163516209044, "ol_pl2_nn": 0.97245117730292663, "comp_idx": 7.0, "rel_cd": "1:1", "class_10": "1:1 변화없음", "cd_class": "변화없음" }, "geometry": { "type": "MultiPolygon", "coordinates": [ [ [ [ 201606.35010000038892, 545467.560000000521541 ], [ 201599.280100000090897, 545473.920199999585748 ], [ 201604.780100000090897, 545480.020099999383092 ], [ 201609.840099999681115, 545480.470000000670552 ], [ 201614.07010000012815, 545476.119899999350309 ], [ 201606.35010000038892, 545467.560000000521541 ] ] ] ] } },
{ "type": "Feature", "properties": { "명칭": null, "구분": "주택", "종류": "일반주택", "용도": "주택", "주기": null, "층수": 3.0, "UFID": "100037705091B00119091300488948124", "area": 124.12514600149498, "poly1_idx": 10, "cut_link": false, "iou_1n": null, "ol_pl1_1n": null, "ol_pl2_1n": null, "iou_n1": null, "ol_pl1_n1": null, "ol_pl2_n1": null, "iou_11": null, "ol_pl1_11": null, "ol_pl2_11": null, "iou_nn": 0.9031959940495502, "ol_pl1_nn": 0.93717074587871541, "ol_pl2_nn": 0.96141090352264658, "comp_idx": 8.0, "rel_cd": "1:1", "class_10": "1:1 변화없음", "cd_class": "변화없음" }, "geometry": { "type": "MultiPolygon", "coordinates": [ [ [ [ 201586.760099999606609, 545470.630100000649691 ], [ 201583.750099999830127, 545470.490100000053644 ], [ 201582.570000000298023, 545472.380000000819564 ], [ 201581.970099999569356, 545471.779999999329448 ], [ 201579.54009999986738, 545474.240000000223517 ], [ 201580.060100000351667, 545475.140100000426173 ], [ 201577.210099999792874, 545477.75 ], [ 201584.370000000111759, 545485.310000000521541 ], [ 201592.53000000026077, 545477.359999999403954 ], [ 201586.760099999606609, 545470.630100000649691 ] ] ] ] } },
{ "type": "Feature", "properties": { "명칭": null, "구분": "연립주택", "종류": "연립주택", "용도": "주택", "주기": "금성타운", "층수": 4.0, "UFID": "100037705091B00111347478063184089", "area": 120.09401450640331, "poly1_idx": 11, "cut_link": false, "iou_1n": null, "ol_pl1_1n": null, "ol_pl2_1n": null, "iou_n1": null, "ol_pl1_n1": null, "ol_pl2_n1": null, "iou_11": null, "ol_pl1_11": null, "ol_pl2_11": null, "iou_nn": 0.65883453209923815, "ol_pl1_nn": 0.69887993616941124, "ol_pl2_nn": 0.9199878661575237, "comp_idx": 9.0, "rel_cd": "1:1", "class_10": "1:1 갱신", "cd_class": "갱신" }, "geometry": { "type": "MultiPolygon", "coordinates": [ [ [ [ 201593.79009999986738, 545479.509999999776483 ], [ 201585.790199999697506, 545487.270099999383092 ], [ 201592.380099999718368, 545495.070000000298023 ], [ 201601.25, 545487.010199999436736 ], [ 201593.79009999986738, 545479.509999999776483 ] ] ] ] } },
{ "type": "Feature", "properties": { "명칭": null, "구분": "주택", "종류": "일반주택", "용도": "주택", "주기": null, "층수": 2.0, "UFID": "100037705091B00115815847314433798", "area": 115.87137900878, "poly1_idx": 12, "cut_link": false, "iou_1n": null, "ol_pl1_1n": null, "ol_pl2_1n": null, "iou_n1": null, "ol_pl1_n1": null, "ol_pl2_n1": null, "iou_11": null, "ol_pl1_11": null, "ol_pl2_11": null, "iou_nn": null, "ol_pl1_nn": null, "ol_pl2_nn": null, "comp_idx": 43.0, "rel_cd": "1:0", "class_10": "소멸", "cd_class": "소멸" }, "geometry": { "type": "MultiPolygon", "coordinates": [ [ [ [ 201623.250099999830127, 545485.449899999424815 ], [ 201622.560100000351667, 545486.030099999159575 ], [ 201619.490100000053644, 545482.419999999925494 ], [ 201615.800099999643862, 545485.380000000819564 ], [ 201614.669999999925494, 545484.220100000500679 ], [ 201610.870099999941885, 545487.620100000873208 ], [ 201619.210099999792874, 545496.750099999830127 ], [ 201626.940100000239909, 545489.310100000351667 ], [ 201623.250099999830127, 545485.449899999424815 ] ] ] ] } },
{ "type": "Feature", "properties": { "명칭": null, "구분": "주택", "종류": "일반주택", "용도": "주택", "주기": null, "층수": 3.0, "UFID": "100037705091B00119514317674259668", "area": 107.3896225014367, "poly1_idx": 13, "cut_link": false, "iou_1n": null, "ol_pl1_1n": null, "ol_pl2_1n": null, "iou_n1": null, "ol_pl1_n1": null, "ol_pl2_n1": null, "iou_11": null, "ol_pl1_11": null, "ol_pl2_11": null, "iou_nn": 0.87897547294665135, "ol_pl1_nn": 0.92824234661360128, "ol_pl2_nn": 0.94305521082817467, "comp_idx": 10.0, "rel_cd": "1:1", "class_10": "1:1 변화없음", "cd_class": "변화없음" }, "geometry": { "type": "MultiPolygon", "coordinates": [ [ [ [ 201583.470099999569356, 545489.210200000554323 ], [ 201576.660099999979138, 545495.450099999085069 ], [ 201580.550200000405312, 545499.310000000521541 ], [ 201579.500099999830127, 545500.259999999776483 ], [ 201583.120099999941885, 545503.950099999085069 ], [ 201591.25, 545497.000099999830127 ], [ 201583.470099999569356, 545489.210200000554323 ] ] ] ] } },
{ "type": "Feature", "properties": { "명칭": null, "구분": "주택외건물", "종류": "주택외건물", "용도": "근린생활시설", "주기": null, "층수": 3.0, "UFID": "100037705091B00111667802753792252", "area": 106.63134099860821, "poly1_idx": 14, "cut_link": false, "iou_1n": null, "ol_pl1_1n": null, "ol_pl2_1n": null, "iou_n1": null, "ol_pl1_n1": null, "ol_pl2_n1": null, "iou_11": null, "ol_pl1_11": null, "ol_pl2_11": null, "iou_nn": 0.72818865067717886, "ol_pl1_nn": 0.81276105221814632, "ol_pl2_nn": 0.87496979726853308, "comp_idx": 11.0, "rel_cd": "1:1", "class_10": "1:1 변화없음", "cd_class": "변화없음" }, "geometry": { "type": "MultiPolygon", "coordinates": [ [ [ [ 201605.71999999973923, 545491.810200000181794 ], [ 201597.980000000447035, 545499.080099999904633 ], [ 201604.440000000409782, 545506.510099999606609 ], [ 201612.45990000013262, 545499.400100000202656 ], [ 201605.71999999973923, 545491.810200000181794 ] ] ] ] } },
{ "type": "Feature", "properties": { "명칭": "반포훼미리아파트", "구분": "아파트", "종류": "아파트", "용도": "주택", "주기": "103동", "층수": 12.0, "UFID": "100037705091B00113464985315737369", "area": 478.75582398038313, "poly1_idx": 15, "cut_link": false, "iou_1n": null, "ol_pl1_1n": null, "ol_pl2_1n": null, "iou_n1": null, "ol_pl1_n1": null, "ol_pl2_n1": null, "iou_11": null, "ol_pl1_11": null, "ol_pl2_11": null, "iou_nn": 0.94328749164828485, "ol_pl1_nn": 0.97025327643937842, "ol_pl2_nn": 0.97137978243936685, "comp_idx": 12.0, "rel_cd": "1:1", "class_10": "1:1 변화없음", "cd_class": "변화없음" }, "geometry": { "type": "MultiPolygon", "coordinates": [ [ [ [ 201516.800099999643862, 545491.220000000670552 ], [ 201517.330099999904633, 545491.259999999776483 ], [ 201517.850200000219047, 545487.870100000873208 ], [ 201518.610000000335276, 545483.160099999979138 ], [ 201520.860000000335276, 545484.060000000521541 ], [ 201519.980100000277162, 545488.449999999254942 ], [ 201522.860100000165403, 545489.109999999403954 ], [ 201522.800099999643862, 545489.869999999180436 ], [ 201528.179999999701977, 545490.990000000223517 ], [ 201528.269999999552965, 545490.320000000298023 ], [ 201532.000099999830127, 545490.769999999552965 ], [ 201534.530100000090897, 545479.82010000012815 ], [ 201531.360100000165403, 545479.36009999923408 ], [ 201531.390100000426173, 545478.930099999532104 ], [ 201525.509999999776483, 545477.769999999552965 ], [ 201525.410099999979138, 545478.119999999180436 ], [ 201520.800099999643862, 545476.830000000074506 ], [ 201521.810100000351667, 545473.78999999910593 ], [ 201521.490000000223517, 545473.669999999925494 ], [ 201522.309999999590218, 545469.470000000670552 ], [ 201510.660099999979138, 545466.900100000202656 ], [ 201509.690000000409782, 545470.119999999180436 ], [ 201509.119900000281632, 545470.090199999511242 ], [ 201507.82010000012815, 545474.979900000616908 ], [ 201508.21999999973923, 545475.220000000670552 ], [ 201506.530100000090897, 545483.160099999979138 ], [ 201505.990000000223517, 545483.070000000298023 ], [ 201504.650000000372529, 545487.859899999573827 ], [ 201505.169999999925494, 545488.119999999180436 ], [ 201504.140100000426173, 545491.580099999904633 ], [ 201516.089999999850988, 545494.470100000500679 ], [ 201516.800099999643862, 545491.220000000670552 ] ] ] ] } },
{ "type": "Feature", "properties": { "명칭": null, "구분": "연립주택", "종류": "연립주택", "용도": "주택", "주기": "예림빌", "층수": 5.0, "UFID": "100037705091B00113220543640991291", "area": 133.94466498795185, "poly1_idx": 16, "cut_link": false, "iou_1n": null, "ol_pl1_1n": null, "ol_pl2_1n": null, "iou_n1": null, "ol_pl1_n1": null, "ol_pl2_n1": null, "iou_11": null, "ol_pl1_11": null, "ol_pl2_11": null, "iou_nn": 0.90212460572327546, "ol_pl1_nn": 0.91227954727137517, "ol_pl2_nn": 0.98781131211193374, "comp_idx": 13.0, "rel_cd": "1:1", "class_10": "1:1 변화없음", "cd_class": "변화없음" }, "geometry": { "type": "MultiPolygon", "coordinates": [ [ [ [ 201574.120000000111759, 545478.970100000500679 ], [ 201573.049999999813735, 545480.140000000596046 ], [ 201572.270200000144541, 545478.929999999701977 ], [ 201565.54009999986738, 545485.590099999681115 ], [ 201574.339900000020862, 545494.970100000500679 ], [ 201581.660099999979138, 545487.470100000500679 ], [ 201574.120000000111759, 545478.970100000500679 ] ] ] ] } },
{ "type": "Feature", "properties": { "명칭": null, "구분": "연립주택", "종류": "연립주택", "용도": "주택", "주기": "동양빌라", "층수": 3.0, "UFID": "100037705091B00112538004879229707", "area": 166.08240251281995, "poly1_idx": 17, "cut_link": false, "iou_1n": null, "ol_pl1_1n": null, "ol_pl2_1n": null, "iou_n1": null, "ol_pl1_n1": null, "ol_pl2_n1": null, "iou_11": null, "ol_pl1_11": null, "ol_pl2_11": null, "iou_nn": 0.81522773957812977, "ol_pl1_nn": 0.83428981019547055, "ol_pl2_nn": 0.97273724560925934, "comp_idx": 14.0, "rel_cd": "1:1", "class_10": "1:1 변화없음", "cd_class": "변화없음" }, "geometry": { "type": "MultiPolygon", "coordinates": [ [ [ [ 201553.79009999986738, 545480.930099999532104 ], [ 201549.820000000298023, 545484.109999999403954 ], [ 201551.07010000012815, 545485.740100000053644 ], [ 201547.530100000090897, 545488.71000000089407 ], [ 201557.740000000223517, 545500.71000000089407 ], [ 201565.179999999701977, 545493.380000000819564 ], [ 201553.79009999986738, 545480.930099999532104 ] ] ] ] } },
{ "type": "Feature", "properties": { "명칭": null, "구분": "연립주택", "종류": "연립주택", "용도": "주택", "주기": "초원빌리지", "층수": 4.0, "UFID": "100037705091B00116769771873872638", "area": 186.85809599893369, "poly1_idx": 18, "cut_link": false, "iou_1n": null, "ol_pl1_1n": null, "ol_pl2_1n": null, "iou_n1": null, "ol_pl1_n1": null, "ol_pl2_n1": null, "iou_11": null, "ol_pl1_11": null, "ol_pl2_11": null, "iou_nn": 0.83999918634683246, "ol_pl1_nn": 0.90279459336994383, "ol_pl2_nn": 0.9235267505328455, "comp_idx": 15.0, "rel_cd": "1:1", "class_10": "1:1 변화없음", "cd_class": "변화없음" }, "geometry": { "type": "MultiPolygon", "coordinates": [ [ [ [ 201575.209999999962747, 545509.220100000500679 ], [ 201576.10010000038892, 545509.950099999085069 ], [ 201580.270100000314415, 545505.630000000819564 ], [ 201570.240000000223517, 545494.470100000500679 ], [ 201560.440000000409782, 545502.980000000447035 ], [ 201571.010099999606609, 545513.370100000873208 ], [ 201575.209999999962747, 545509.220100000500679 ] ] ] ] } },
{ "type": "Feature", "properties": { "명칭": null, "구분": "연립주택", "종류": "연립주택", "용도": "주택", "주기": "세한빌라", "층수": 3.0, "UFID": "100037705091B00115301217435153844", "area": 193.62829599288204, "poly1_idx": 19, "cut_link": false, "iou_1n": null, "ol_pl1_1n": null, "ol_pl2_1n": null, "iou_n1": null, "ol_pl1_n1": null, "ol_pl2_n1": null, "iou_11": null, "ol_pl1_11": null, "ol_pl2_11": null, "iou_nn": 0.88340349664272055, "ol_pl1_nn": 0.92475152822839135, "ol_pl2_nn": 0.95182436101679324, "comp_idx": 16.0, "rel_cd": "1:1", "class_10": "1:1 변화없음", "cd_class": "변화없음" }, "geometry": { "type": "MultiPolygon", "coordinates": [ [ [ [ 201547.650100000202656, 545493.870100000873208 ], [ 201534.330199999734759, 545506.330099999904633 ], [ 201541.530100000090897, 545514.07010000012815 ], [ 201554.910099999979138, 545501.68019999936223 ], [ 201547.650100000202656, 545493.870100000873208 ] ] ] ] } },
{ "type": "Feature", "properties": { "명칭": "써니힐아파트", "구분": "아파트", "종류": "아파트", "용도": "주택", "주기": null, "층수": 6.0, "UFID": "100037705091B00113207651243489198", "area": 186.28232399902049, "poly1_idx": 20, "cut_link": false, "iou_1n": null, "ol_pl1_1n": null, "ol_pl2_1n": null, "iou_n1": null, "ol_pl1_n1": null, "ol_pl2_n1": null, "iou_11": null, "ol_pl1_11": null, "ol_pl2_11": null, "iou_nn": 0.71702524090377273, "ol_pl1_nn": 0.77786951673871418, "ol_pl2_nn": 0.90164139265662957, "comp_idx": 17.0, "rel_cd": "1:1", "class_10": "1:1 변화없음", "cd_class": "변화없음" }, "geometry": { "type": "MultiPolygon", "coordinates": [ [ [ [ 201566.990000000223517, 545515.550100000575185 ], [ 201557.130099999718368, 545504.740199999883771 ], [ 201547.309999999590218, 545513.670099999755621 ], [ 201550.430100000463426, 545517.169999999925494 ], [ 201551.04009999986738, 545516.680099999532104 ], [ 201553.809999999590218, 545520.18019999936223 ], [ 201554.660099999979138, 545519.770099999383092 ], [ 201557.730100000277162, 545523.990100000053644 ], [ 201566.990000000223517, 545515.550100000575185 ] ] ] ] } },
{ "type": "Feature", "properties": { "명칭": "반포훼미리아파트", "구분": "아파트", "종류": "아파트", "용도": "주택", "주기": "104동", "층수": 7.0, "UFID": "100037705091B00113912272949734623", "area": 454.93834251132284, "poly1_idx": 21, "cut_link": false, "iou_1n": null, "ol_pl1_1n": null, "ol_pl2_1n": null, "iou_n1": null, "ol_pl1_n1": null, "ol_pl2_n1": null, "iou_11": null, "ol_pl1_11": null, "ol_pl2_11": null, "iou_nn": 0.93950623240511588, "ol_pl1_nn": 0.97628345462581401, "ol_pl2_nn": 0.96144951775827991, "comp_idx": 18.0, "rel_cd": "1:1", "class_10": "1:1 변화없음", "cd_class": "변화없음" }, "geometry": { "type": "MultiPolygon", "coordinates": [ [ [ [ 201504.870099999941885, 545535.380100000649691 ], [ 201506.490000000223517, 545535.929999999701977 ], [ 201507.870000000111759, 545532.259999999776483 ], [ 201512.260200000368059, 545533.620100000873208 ], [ 201512.810100000351667, 545531.290100000798702 ], [ 201514.410099999979138, 545531.900000000372529 ], [ 201518.490100000053644, 545519.249900000169873 ], [ 201508.03000000026077, 545515.870100000873208 ], [ 201509.54009999986738, 545511.860200000926852 ], [ 201505.370000000111759, 545510.320000000298023 ], [ 201505.010099999606609, 545510.850099999457598 ], [ 201502.580000000074506, 545510.040100000798702 ], [ 201502.150100000202656, 545511.009999999776483 ], [ 201498.379999999888241, 545509.769999999552965 ], [ 201496.839999999850988, 545513.070000000298023 ], [ 201497.379999999888241, 545513.230100000277162 ], [ 201494.900100000202656, 545520.78999999910593 ], [ 201495.449900000356138, 545520.970000000670552 ], [ 201491.370199999772012, 545531.780099999159575 ], [ 201504.54009999986738, 545536.790100000798702 ], [ 201504.870099999941885, 545535.380100000649691 ] ] ] ] } },
{ "type": "Feature", "properties": { "명칭": null, "구분": "연립주택", "종류": "연립주택", "용도": "주택", "주기": "리베하임빌", "층수": 5.0, "UFID": "100037705091B00113707740688140243", "area": 79.07642005677161, "poly1_idx": 22, "cut_link": false, "iou_1n": null, "ol_pl1_1n": null, "ol_pl2_1n": null, "iou_n1": null, "ol_pl1_n1": null, "ol_pl2_n1": null, "iou_11": null, "ol_pl1_11": null, "ol_pl2_11": null, "iou_nn": 0.48637747069679771, "ol_pl1_nn": 0.50536150138050184, "ol_pl2_nn": 0.92830275586085498, "comp_idx": 19.0, "rel_cd": "1:1", "class_10": "1:1 갱신", "cd_class": "갱신" }, "geometry": { "type": "MultiPolygon", "coordinates": [ [ [ [ 201614.246100000105798, 545502.305099999532104 ], [ 201607.361100000329316, 545508.609999999403954 ], [ 201613.31209999974817, 545514.685000000521541 ], [ 201620.134100000374019, 545508.636099999770522 ], [ 201614.246100000105798, 545502.305099999532104 ] ] ] ] } },
{ "type": "Feature", "properties": { "명칭": null, "구분": "연립주택", "종류": "연립주택", "용도": "주택", "주기": "목화빌리지", "층수": 3.0, "UFID": "100037705091B00112008660239614107", "area": 105.3597669936166, "poly1_idx": 23, "cut_link": false, "iou_1n": null, "ol_pl1_1n": null, "ol_pl2_1n": null, "iou_n1": null, "ol_pl1_n1": null, "ol_pl2_n1": null, "iou_11": null, "ol_pl1_11": null, "ol_pl2_11": null, "iou_nn": 0.81981328673135501, "ol_pl1_nn": 0.86735766447131246, "ol_pl2_nn": 0.93732745476754542, "comp_idx": 20.0, "rel_cd": "1:1", "class_10": "1:1 변화없음", "cd_class": "변화없음" }, "geometry": { "type": "MultiPolygon", "coordinates": [ [ [ [ 201596.810100000351667, 545502.060000000521541 ], [ 201588.060100000351667, 545509.880000000819564 ], [ 201594.490000000223517, 545516.509999999776483 ], [ 201602.800099999643862, 545508.900100000202656 ], [ 201596.810100000351667, 545502.060000000521541 ] ] ] ] } },
{ "type": "Feature", "properties": { "명칭": null, "구분": "주택", "종류": "일반주택", "용도": "주택", "주기": null, "층수": 2.0, "UFID": "100037705091B00117336452460262833", "area": 101.0491330090973, "poly1_idx": 24, "cut_link": false, "iou_1n": null, "ol_pl1_1n": null, "ol_pl2_1n": null, "iou_n1": null, "ol_pl1_n1": null, "ol_pl2_n1": null, "iou_11": null, "ol_pl1_11": null, "ol_pl2_11": null, "iou_nn": 0.81253316538383091, "ol_pl1_nn": 0.93526403743061903, "ol_pl2_nn": 0.86095401755146628, "comp_idx": 21.0, "rel_cd": "1:1", "class_10": "1:1 변화없음", "cd_class": "변화없음" }, "geometry": { "type": "MultiPolygon", "coordinates": [ [ [ [ 201604.769999999552965, 545510.690099999308586 ], [ 201596.930200000293553, 545517.800100000575185 ], [ 201603.440100000239909, 545524.720200000330806 ], [ 201611.330099999904633, 545517.849899999797344 ], [ 201604.769999999552965, 545510.690099999308586 ] ] ] ] } },
{ "type": "Feature", "properties": { "명칭": null, "구분": "연립주택", "종류": "연립주택", "용도": "주택", "주기": "세종빌리지", "층수": 5.0, "UFID": "100037705091B00118400502512537610", "area": 202.99784691755178, "poly1_idx": 25, "cut_link": false, "iou_1n": null, "ol_pl1_1n": null, "ol_pl2_1n": null, "iou_n1": null, "ol_pl1_n1": null, "ol_pl2_n1": null, "iou_11": null, "ol_pl1_11": null, "ol_pl2_11": null, "iou_nn": 0.88504895827189356, "ol_pl1_nn": 0.91886574284329614, "ol_pl2_nn": 0.96007736607685112, "comp_idx": 22.0, "rel_cd": "1:1", "class_10": "1:1 변화없음", "cd_class": "변화없음" }, "geometry": { "type": "MultiPolygon", "coordinates": [ [ [ [ 201581.03110000025481, 545527.926999999210238 ], [ 201581.703099999576807, 545528.58699999935925 ], [ 201584.20409999974072, 545526.464099999517202 ], [ 201583.565999999642372, 545525.732999999076128 ], [ 201585.282999999821186, 545524.192099999636412 ], [ 201585.878100000321865, 545524.790100000798702 ], [ 201588.38910000026226, 545522.781999999657273 ], [ 201587.79009999986738, 545522.029999999329448 ], [ 201591.234000000171363, 545518.948000000789762 ], [ 201584.7511, 545511.645099999383092 ], [ 201569.607099999673665, 545524.763100000098348 ], [ 201576.025100000202656, 545532.03800000064075 ], [ 201581.03110000025481, 545527.926999999210238 ] ] ] ] } },
{ "type": "Feature", "properties": { "명칭": null, "구분": "연립주택", "종류": "연립주택", "용도": "주택", "주기": "용진빌라", "층수": 3.0, "UFID": "100037705091B00118688042659581124", "area": 113.4891560065528, "poly1_idx": 26, "cut_link": false, "iou_1n": null, "ol_pl1_1n": null, "ol_pl2_1n": null, "iou_n1": null, "ol_pl1_n1": null, "ol_pl2_n1": null, "iou_11": null, "ol_pl1_11": null, "ol_pl2_11": null, "iou_nn": 0.81668982040133853, "ol_pl1_nn": 0.90005376453278474, "ol_pl2_nn": 0.89814146912713422, "comp_idx": 23.0, "rel_cd": "1:1", "class_10": "1:1 변화없음", "cd_class": "변화없음" }, "geometry": { "type": "MultiPolygon", "coordinates": [ [ [ [ 201600.870099999941885, 545527.920199999585748 ], [ 201593.940000000409782, 545520.650100000202656 ], [ 201585.639999999664724, 545529.190199999138713 ], [ 201588.1402000002563, 545532.590199999511242 ], [ 201589.21999999973923, 545531.57010000012815 ], [ 201592.82010000012815, 545535.630000000819564 ], [ 201600.870099999941885, 545527.920199999585748 ] ] ] ] } },
{ "type": "Feature", "properties": { "명칭": null, "구분": "주택", "종류": "일반주택", "용도": "주택", "주기": null, "층수": 3.0, "UFID": "100037705091B00111240814979745744", "area": 123.3900114987657, "poly1_idx": 27, "cut_link": false, "iou_1n": null, "ol_pl1_1n": null, "ol_pl2_1n": null, "iou_n1": null, "ol_pl1_n1": null, "ol_pl2_n1": null, "iou_11": null, "ol_pl1_11": null, "ol_pl2_11": null, "iou_nn": 0.36496632270324564, "ol_pl1_nn": 0.40018586800490025, "ol_pl2_nn": 0.80571089732150047, "comp_idx": 24.0, "rel_cd": "1:1", "class_10": "1:1 갱신", "cd_class": "갱신" }, "geometry": { "type": "MultiPolygon", "coordinates": [ [ [ [ 201547.53000000026077, 545534.109999999403954 ], [ 201550.400000000372529, 545535.060000000521541 ], [ 201552.29009999986738, 545531.310100000351667 ], [ 201548.990100000053644, 545528.390000000596046 ], [ 201542.830099999904633, 545524.900100000202656 ], [ 201543.010099999606609, 545523.670099999755621 ], [ 201539.200000000186265, 545522.830000000074506 ], [ 201538.570000000298023, 545525.050100000575185 ], [ 201537.110000000335276, 545524.480100000277162 ], [ 201535.049999999813735, 545531.450099999085069 ], [ 201546.760099999606609, 545535.230000000447035 ], [ 201547.53000000026077, 545534.109999999403954 ] ] ] ] } },
{ "type": "Feature", "properties": { "명칭": "보아스힐아파트", "구분": "아파트", "종류": "아파트", "용도": "주택", "주기": null, "층수": 7.0, "UFID": "100037705091B00116064015059290083", "area": 303.06838450234926, "poly1_idx": 28, "cut_link": false, "iou_1n": null, "ol_pl1_1n": null, "ol_pl2_1n": null, "iou_n1": null, "ol_pl1_n1": null, "ol_pl2_n1": null, "iou_11": null, "ol_pl1_11": null, "ol_pl2_11": null, "iou_nn": 0.89408057889633985, "ol_pl1_nn": 0.9375633973049744, "ol_pl2_nn": 0.95068521756157143, "comp_idx": 25.0, "rel_cd": "1:1", "class_10": "1:1 변화없음", "cd_class": "변화없음" }, "geometry": { "type": "MultiPolygon", "coordinates": [ [ [ [ 201525.299999999813735, 545530.050000000745058 ], [ 201531.21999999973923, 545532.03999999910593 ], [ 201534.930100000463426, 545521.449899999424815 ], [ 201523.720099999569356, 545518.019999999552965 ], [ 201513.889999999664724, 545544.080099999904633 ], [ 201525.080099999904633, 545548.280099999159575 ], [ 201529.309999999590218, 545536.980000000447035 ], [ 201523.490100000053644, 545534.990100000053644 ], [ 201525.299999999813735, 545530.050000000745058 ] ] ] ] } },
{ "type": "Feature", "properties": { "명칭": null, "구분": "무벽건물", "종류": "무벽건물", "용도": "근린생활시설", "주기": "보아스힐아파트", "층수": 1.0, "UFID": "100037705091B00113425997297325682", "area": 104.35098763628956, "poly1_idx": 29, "cut_link": true, "iou_1n": null, "ol_pl1_1n": null, "ol_pl2_1n": null, "iou_n1": null, "ol_pl1_n1": null, "ol_pl2_n1": null, "iou_11": null, "ol_pl1_11": null, "ol_pl2_11": null, "iou_nn": null, "ol_pl1_nn": null, "ol_pl2_nn": null, "comp_idx": 44.0, "rel_cd": "1:0", "class_10": "소멸", "cd_class": "소멸" }, "geometry": { "type": "MultiPolygon", "coordinates": [ [ [ [ 201491.114000000059605, 545531.755999999120831 ], [ 201490.915000000037253, 545532.375 ], [ 201490.851999999955297, 545532.718000000342727 ], [ 201490.848000000230968, 545533.115000000223517 ], [ 201490.80599999986589, 545533.559100000187755 ], [ 201490.775000000372529, 545533.868100000545382 ], [ 201490.764000000432134, 545534.173200000077486 ], [ 201490.758100000210106, 545534.455000000074506 ], [ 201490.763100000098348, 545534.871999999508262 ], [ 201490.780100000090897, 545535.103000000119209 ], [ 201490.802000000141561, 545535.300000000745058 ], [ 201490.882100000046194, 545535.630200000479817 ], [ 201490.899100000038743, 545535.826099999248981 ], [ 201490.967000000178814, 545536.145999999716878 ], [ 201491.031999999657273, 545536.41499999910593 ], [ 201491.108099999837577, 545536.620200000703335 ], [ 201491.195000000298023, 545536.950099999085069 ], [ 201491.384100000374019, 545537.627000000327826 ], [ 201491.605999999679625, 545538.148000000044703 ], [ 201491.797100000083447, 545538.594000000506639 ], [ 201492.129999999888241, 545539.322000000625849 ], [ 201492.474000000394881, 545539.871099999174476 ], [ 201492.826100000180304, 545540.286100000143051 ], [ 201493.245099999941885, 545540.701099999248981 ], [ 201493.564100000075996, 545540.994100000709295 ], [ 201494.18709999974817, 545541.418999999761581 ], [ 201495.072100000455976, 545541.930099999532104 ], [ 201495.63300000037998, 545542.244000000879169 ], [ 201506.075100000016391, 545546.388100000098348 ], [ 201507.795099999755621, 545541.463999999687076 ], [ 201498.118999999947846, 545537.340099999681115 ], [ 201497.836099999956787, 545537.200099999085069 ], [ 201497.575100000016391, 545537.025000000372529 ], [ 201497.373999999836087, 545536.81110000051558 ], [ 201497.03000000026077, 545536.431099999696016 ], [ 201496.861100000329316, 545536.223099999129772 ], [ 201496.629099999554455, 545535.905999999493361 ], [ 201496.489099999889731, 545535.657199999317527 ], [ 201496.321100000292063, 545535.313100000843406 ], [ 201496.218999999575317, 545535.066999999806285 ], [ 201496.099100000225008, 545534.8421 ], [ 201496.025000000372529, 545534.635099999606609 ], [ 201496.04700000025332, 545534.434100000187755 ], [ 201496.071999999694526, 545534.184100000187755 ], [ 201496.138100000098348, 545533.794099999591708 ], [ 201496.16399999987334, 545533.662000000476837 ], [ 201491.114000000059605, 545531.755999999120831 ] ] ] ] } },
{ "type": "Feature", "properties": { "명칭": null, "구분": "연립주택", "종류": "연립주택", "용도": "주택", "주기": "서울빌라", "층수": 4.0, "UFID": "100037705091B00119525985663552915", "area": 178.42984200437184, "poly1_idx": 30, "cut_link": false, "iou_1n": null, "ol_pl1_1n": null, "ol_pl2_1n": null, "iou_n1": null, "ol_pl1_n1": null, "ol_pl2_n1": null, "iou_11": null, "ol_pl1_11": null, "ol_pl2_11": null, "iou_nn": 0.88134123360679728, "ol_pl1_nn": 0.96817568347330607, "ol_pl2_nn": 0.90763546377502768, "comp_idx": 26.0, "rel_cd": "1:1", "class_10": "1:1 변화없음", "cd_class": "변화없음" }, "geometry": { "type": "MultiPolygon", "coordinates": [ [ [ [ 201534.080000000074506, 545535.410099999979138 ], [ 201528.150000000372529, 545550.030099999159575 ], [ 201538.760099999606609, 545554.300000000745058 ], [ 201544.450000000186265, 545539.570000000298023 ], [ 201534.080000000074506, 545535.410099999979138 ] ] ] ] } },
{ "type": "Feature", "properties": { "명칭": "세창빌딩", "구분": "주택외건물", "종류": "주택외건물", "용도": "근린생활시설", "주기": null, "층수": 7.0, "UFID": "100037705091B00112312730434684473", "area": 114.389366314075, "poly1_idx": 31, "cut_link": false, "iou_1n": null, "ol_pl1_1n": null, "ol_pl2_1n": null, "iou_n1": null, "ol_pl1_n1": null, "ol_pl2_n1": null, "iou_11": null, "ol_pl1_11": null, "ol_pl2_11": null, "iou_nn": 0.89788925954582066, "ol_pl1_nn": 0.95630822536653171, "ol_pl2_nn": 0.93629879316577203, "comp_idx": 27.0, "rel_cd": "1:1", "class_10": "1:1 변화없음", "cd_class": "변화없음" }, "geometry": { "type": "MultiPolygon", "coordinates": [ [ [ [ 201489.058000000193715, 545542.366100000217557 ], [ 201482.987999999895692, 545559.425100000575185 ], [ 201488.707100000232458, 545561.461100000888109 ], [ 201495.24100000038743, 545544.628000000491738 ], [ 201489.058000000193715, 545542.366100000217557 ] ] ] ] } },
{ "type": "Feature", "properties": { "명칭": null, "구분": "연립주택", "종류": "연립주택", "용도": "주택", "주기": "하나빌라", "층수": 4.0, "UFID": "100037705091B00119197045146142512", "area": 183.41713550393837, "poly1_idx": 32, "cut_link": false, "iou_1n": null, "ol_pl1_1n": null, "ol_pl2_1n": null, "iou_n1": null, "ol_pl1_n1": null, "ol_pl2_n1": null, "iou_11": null, "ol_pl1_11": null, "ol_pl2_11": null, "iou_nn": 0.87434815862504911, "ol_pl1_nn": 0.93157628775744128, "ol_pl2_nn": 0.93435260122950359, "comp_idx": 28.0, "rel_cd": "1:1", "class_10": "1:1 변화없음", "cd_class": "변화없음" }, "geometry": { "type": "MultiPolygon", "coordinates": [ [ [ [ 201567.299999999813735, 545558.970000000670552 ], [ 201567.930100000463426, 545559.160000000149012 ], [ 201571.200000000186265, 545549.630000000819564 ], [ 201565.980100000277162, 545547.950099999085069 ], [ 201565.820000000298023, 545548.439999999478459 ], [ 201560.269999999552965, 545546.519999999552965 ], [ 201557.240100000053644, 545554.46000000089407 ], [ 201556.520100000314415, 545554.290100000798702 ], [ 201554.260099999606609, 545560.71000000089407 ], [ 201565.230000000447035, 545564.770099999383092 ], [ 201567.299999999813735, 545558.970000000670552 ] ] ] ] } },
{ "type": "Feature", "properties": { "명칭": "심로빌딩", "구분": "주택외건물", "종류": "주택외건물", "용도": "근린생활시설", "주기": null, "층수": 6.0, "UFID": "100037705091B00117964196658642545", "area": 321.69849099455308, "poly1_idx": 33, "cut_link": false, "iou_1n": null, "ol_pl1_1n": null, "ol_pl2_1n": null, "iou_n1": null, "ol_pl1_n1": null, "ol_pl2_n1": null, "iou_11": null, "ol_pl1_11": null, "ol_pl2_11": null, "iou_nn": 0.91757323178955619, "ol_pl1_nn": 0.97989582769999506, "ol_pl2_nn": 0.93517845424659585, "comp_idx": 29.0, "rel_cd": "1:1", "class_10": "1:1 변화없음", "cd_class": "변화없음" }, "geometry": { "type": "MultiPolygon", "coordinates": [ [ [ [ 201498.800099999643862, 545547.630100000649691 ], [ 201496.470200000330806, 545553.730100000277162 ], [ 201491.439899999648333, 545566.910000000149012 ], [ 201506.440100000239909, 545571.980000000447035 ], [ 201513.510099999606609, 545553.03999999910593 ], [ 201498.800099999643862, 545547.630100000649691 ] ] ] ] } },
{ "type": "Feature", "properties": { "명칭": null, "구분": "연립주택", "종류": "연립주택", "용도": "주택", "주기": "현아트빌라", "층수": 5.0, "UFID": "100037705091B00115952502676049409", "area": 171.43760298289789, "poly1_idx": 34, "cut_link": false, "iou_1n": null, "ol_pl1_1n": null, "ol_pl2_1n": null, "iou_n1": null, "ol_pl1_n1": null, "ol_pl2_n1": null, "iou_11": null, "ol_pl1_11": null, "ol_pl2_11": null, "iou_nn": 0.82167842935820945, "ol_pl1_nn": 0.84098401930701738, "ol_pl2_nn": 0.97282143154403999, "comp_idx": 30.0, "rel_cd": "1:1", "class_10": "1:1 변화없음", "cd_class": "변화없음" }, "geometry": { "type": "MultiPolygon", "coordinates": [ [ [ [ 201571.71999999973923, 545553.550100000575185 ], [ 201568.10010000038892, 545563.429999999701977 ], [ 201568.630099999718368, 545563.580099999904633 ], [ 201566.660099999979138, 545568.400100000202656 ], [ 201576.920099999755621, 545572.170099999755621 ], [ 201581.970099999569356, 545557.460100000724196 ], [ 201571.71999999973923, 545553.550100000575185 ] ] ] ] } },
{ "type": "Feature", "properties": { "명칭": "화인빌딩", "구분": "주택외건물", "종류": "주택외건물", "용도": "근린생활시설", "주기": null, "층수": 6.0, "UFID": "100037705091B00116236424168394135", "area": 260.28612150811364, "poly1_idx": 35, "cut_link": false, "iou_1n": null, "ol_pl1_1n": null, "ol_pl2_1n": null, "iou_n1": null, "ol_pl1_n1": null, "ol_pl2_n1": null, "iou_11": null, "ol_pl1_11": null, "ol_pl2_11": null, "iou_nn": 0.90625723690797133, "ol_pl1_nn": 0.92997994567363262, "ol_pl2_nn": 0.97262312964399322, "comp_idx": 31.0, "rel_cd": "1:1", "class_10": "1:1 변화없음", "cd_class": "변화없음" }, "geometry": { "type": "MultiPolygon", "coordinates": [ [ [ [ 201517.650000000372529, 545556.75 ], [ 201511.700100000016391, 545573.130000000819564 ], [ 201525.589999999850988, 545578.380000000819564 ], [ 201531.700000000186265, 545562.050100000575185 ], [ 201517.650000000372529, 545556.75 ] ] ] ] } },
{ "type": "Feature", "properties": { "명칭": null, "구분": "주택", "종류": "일반주택", "용도": "주택", "주기": null, "층수": 2.0, "UFID": "100037705091B00114454169154086082", "area": 118.95016701411012, "poly1_idx": 36, "cut_link": false, "iou_1n": null, "ol_pl1_1n": null, "ol_pl2_1n": null, "iou_n1": null, "ol_pl1_n1": null, "ol_pl2_n1": null, "iou_11": null, "ol_pl1_11": null, "ol_pl2_11": null, "iou_nn": 0.37868657568495329, "ol_pl1_nn": 0.39775213283067884, "ol_pl2_nn": 0.88764408577563902, "comp_idx": 32.0, "rel_cd": "1:1", "class_10": "1:1 갱신", "cd_class": "갱신" }, "geometry": { "type": "MultiPolygon", "coordinates": [ [ [ [ 201617.459999999962747, 545525.71000000089407 ], [ 201616.389999999664724, 545526.750099999830127 ], [ 201615.349999999627471, 545525.430099999532104 ], [ 201614.389899999834597, 545526.350099999457598 ], [ 201613.370199999772012, 545525.0 ], [ 201606.800099999643862, 545531.57010000012815 ], [ 201614.060200000181794, 545539.21000000089407 ], [ 201622.440200000070035, 545531.660000000149012 ], [ 201617.459999999962747, 545525.71000000089407 ] ] ] ] } },
{ "type": "Feature", "properties": { "명칭": null, "구분": "연립주택", "종류": "연립주택", "용도": "주택", "주기": "예은빌라", "층수": 3.0, "UFID": "100037705091B00119194506985451767", "area": 114.69622149849597, "poly1_idx": 37, "cut_link": false, "iou_1n": null, "ol_pl1_1n": null, "ol_pl2_1n": null, "iou_n1": null, "ol_pl1_n1": null, "ol_pl2_n1": null, "iou_11": null, "ol_pl1_11": null, "ol_pl2_11": null, "iou_nn": 0.82926700646198515, "ol_pl1_nn": 0.97558782975486624, "ol_pl2_nn": 0.84683958749652621, "comp_idx": 33.0, "rel_cd": "1:1", "class_10": "1:1 변화없음", "cd_class": "변화없음" }, "geometry": { "type": "MultiPolygon", "coordinates": [ [ [ [ 201581.519999999552965, 545531.460100000724196 ], [ 201579.860000000335276, 545533.070000000298023 ], [ 201579.139899999834597, 545532.450099999085069 ], [ 201574.730100000277162, 545536.349999999627471 ], [ 201575.639999999664724, 545537.230000000447035 ], [ 201574.870099999941885, 545538.019999999552965 ], [ 201575.799999999813735, 545538.779999999329448 ], [ 201574.29009999986738, 545540.470100000500679 ], [ 201581.150000000372529, 545546.410099999979138 ], [ 201588.130099999718368, 545538.740100000053644 ], [ 201581.519999999552965, 545531.460100000724196 ] ] ] ] } },
{ "type": "Feature", "properties": { "명칭": null, "구분": "주택", "종류": "일반주택", "용도": "주택", "주기": null, "층수": 2.0, "UFID": "100037705091B00112546954659642969", "area": 102.3439014944575, "poly1_idx": 38, "cut_link": false, "iou_1n": null, "ol_pl1_1n": null, "ol_pl2_1n": null, "iou_n1": null, "ol_pl1_n1": null, "ol_pl2_n1": null, "iou_11": null, "ol_pl1_11": null, "ol_pl2_11": null, "iou_nn": 0.79132067884308144, "ol_pl1_nn": 0.85909441487781679, "ol_pl2_nn": 0.90934406281261926, "comp_idx": 34.0, "rel_cd": "1:1", "class_10": "1:1 변화없음", "cd_class": "변화없음" }, "geometry": { "type": "MultiPolygon", "coordinates": [ [ [ [ 201608.29009999986738, 545539.800000000745058 ], [ 201607.530100000090897, 545540.470000000670552 ], [ 201603.940000000409782, 545536.5 ], [ 201601.260099999606609, 545539.25 ], [ 201600.400000000372529, 545538.150100000202656 ], [ 201597.270100000314415, 545541.189999999478459 ], [ 201607.140100000426173, 545550.410000000149012 ], [ 201612.650100000202656, 545544.870200000703335 ], [ 201608.29009999986738, 545539.800000000745058 ] ] ] ] } },
{ "type": "Feature", "properties": { "명칭": null, "구분": "연립주택", "종류": "연립주택", "용도": "주택", "주기": "문정빌라", "층수": 3.0, "UFID": "100037705091B00114092092155028096", "area": 133.56098649428438, "poly1_idx": 39, "cut_link": false, "iou_1n": null, "ol_pl1_1n": null, "ol_pl2_1n": null, "iou_n1": null, "ol_pl1_n1": null, "ol_pl2_n1": null, "iou_11": null, "ol_pl1_11": null, "ol_pl2_11": null, "iou_nn": 0.82947924765645065, "ol_pl1_nn": 0.87630911431244018, "ol_pl2_nn": 0.93947362562899572, "comp_idx": 35.0, "rel_cd": "1:1", "class_10": "1:1 변화없음", "cd_class": "변화없음" }, "geometry": { "type": "MultiPolygon", "coordinates": [ [ [ [ 201596.810100000351667, 545541.900000000372529 ], [ 201588.270100000314415, 545549.970000000670552 ], [ 201595.900100000202656, 545558.390100000426173 ], [ 201604.490000000223517, 545549.589999999850988 ], [ 201596.810100000351667, 545541.900000000372529 ] ] ] ] } },
{ "type": "Feature", "properties": { "명칭": null, "구분": "주택외건물", "종류": "주택외건물", "용도": "근린생활시설", "주기": null, "층수": 4.0, "UFID": "100037705091B00111143057731888102", "area": 148.73202898305578, "poly1_idx": 40, "cut_link": false, "iou_1n": null, "ol_pl1_1n": null, "ol_pl2_1n": null, "iou_n1": null, "ol_pl1_n1": null, "ol_pl2_n1": null, "iou_11": null, "ol_pl1_11": null, "ol_pl2_11": null, "iou_nn": 0.13739095668809315, "ol_pl1_nn": 0.14177589076682409, "ol_pl2_nn": 0.81625055843489558, "comp_idx": 36.0, "rel_cd": "1:1", "class_10": "1:1 갱신", "cd_class": "갱신" }, "geometry": { "type": "MultiPolygon", "coordinates": [ [ [ [ 201616.28000000026077, 545543.470100000500679 ], [ 201609.110000000335276, 545549.679999999701977 ], [ 201619.700000000186265, 545561.530099999159575 ], [ 201626.629999999888241, 545555.220100000500679 ], [ 201616.28000000026077, 545543.470100000500679 ] ] ] ] } },
{ "type": "Feature", "properties": { "명칭": null, "구분": "연립주택", "종류": "연립주택", "용도": "주택", "주기": "반포미소빌", "층수": 4.0, "UFID": "100037705091B00118631810499511693", "area": 151.60868298165596, "poly1_idx": 41, "cut_link": false, "iou_1n": null, "ol_pl1_1n": null, "ol_pl2_1n": null, "iou_n1": null, "ol_pl1_n1": null, "ol_pl2_n1": null, "iou_11": null, "ol_pl1_11": null, "ol_pl2_11": null, "iou_nn": 0.83486150289472794, "ol_pl1_nn": 0.86546857472844219, "ol_pl2_nn": 0.95936144068683959, "comp_idx": 37.0, "rel_cd": "1:1", "class_10": "1:1 변화없음", "cd_class": "변화없음" }, "geometry": { "type": "MultiPolygon", "coordinates": [ [ [ [ 201617.219899999909103, 545561.390100000426173 ], [ 201607.230100000277162, 545551.21000000089407 ], [ 201599.480000000447035, 545558.220000000670552 ], [ 201605.450100000016391, 545564.900000000372529 ], [ 201606.030199999921024, 545564.410000000149012 ], [ 201610.339999999850988, 545568.470100000500679 ], [ 201617.219899999909103, 545561.390100000426173 ] ] ] ] } },
{ "type": "Feature", "properties": { "명칭": null, "구분": "주택", "종류": "일반주택", "용도": "주택", "주기": null, "층수": 4.0, "UFID": "100037705091B00112288750046822342", "area": 137.9459549972913, "poly1_idx": 42, "cut_link": false, "iou_1n": null, "ol_pl1_1n": null, "ol_pl2_1n": null, "iou_n1": null, "ol_pl1_n1": null, "ol_pl2_n1": null, "iou_11": null, "ol_pl1_11": null, "ol_pl2_11": null, "iou_nn": 0.55647990550937798, "ol_pl1_nn": 0.6220213974275246, "ol_pl2_nn": 0.84079656295322225, "comp_idx": 38.0, "rel_cd": "1:1", "class_10": "1:1 갱신", "cd_class": "갱신" }, "geometry": { "type": "MultiPolygon", "coordinates": [ [ [ [ 201583.640100000426173, 545560.730000000447035 ], [ 201577.820000000298023, 545573.380100000649691 ], [ 201586.820000000298023, 545577.520099999383092 ], [ 201592.640100000426173, 545564.870100000873208 ], [ 201583.640100000426173, 545560.730000000447035 ] ] ] ] } },
{ "type": "Feature", "properties": { "명칭": null, "구분": "연립주택", "종류": "연립주택", "용도": "주택", "주기": "두원상가주택", "층수": 4.0, "UFID": "100037705091B00114183758228302148", "area": 93.02777650661433, "poly1_idx": 43, "cut_link": false, "iou_1n": null, "ol_pl1_1n": null, "ol_pl2_1n": null, "iou_n1": null, "ol_pl1_n1": null, "ol_pl2_n1": null, "iou_11": null, "ol_pl1_11": null, "ol_pl2_11": null, "iou_nn": 0.77557918807890491, "ol_pl1_nn": 0.97463629896760762, "ol_pl2_nn": 0.79155553866650141, "comp_idx": 39.0, "rel_cd": "1:1", "class_10": "1:1 변화없음", "cd_class": "변화없음" }, "geometry": { "type": "MultiPolygon", "coordinates": [ [ [ [ 201594.53000000026077, 545565.099999999627471 ], [ 201591.309999999590218, 545573.740100000053644 ], [ 201595.060100000351667, 545574.689999999478459 ], [ 201594.950100000016391, 545575.130000000819564 ], [ 201602.10010000038892, 545577.460100000724196 ], [ 201603.920099999755621, 545571.939999999478459 ], [ 201599.919900000095367, 545567.230100000277162 ], [ 201594.53000000026077, 545565.099999999627471 ] ] ] ] } },
{ "type": "Feature", "properties": { "명칭": null, "구분": "주택외건물", "종류": "주택외건물", "용도": "근린생활시설", "주기": null, "층수": 2.0, "UFID": "100037705091B00115182947236448545", "area": 95.010459994659954, "poly1_idx": 44, "cut_link": false, "iou_1n": null, "ol_pl1_1n": null, "ol_pl2_1n": null, "iou_n1": null, "ol_pl1_n1": null, "ol_pl2_n1": null, "iou_11": null, "ol_pl1_11": null, "ol_pl2_11": null, "iou_nn": 0.07712913650288801, "ol_pl1_nn": 0.077249646899413785, "ol_pl2_nn": 0.98017500142274772, "comp_idx": 40.0, "rel_cd": "1:1", "class_10": "1:1 갱신", "cd_class": "갱신" }, "geometry": { "type": "MultiPolygon", "coordinates": [ [ [ [ 201617.720099999569356, 545571.900100000202656 ], [ 201610.29009999986738, 545578.630000000819564 ], [ 201609.159900000318885, 545586.400100000202656 ], [ 201611.700000000186265, 545585.939999999478459 ], [ 201622.730100000277162, 545577.990100000053644 ], [ 201617.720099999569356, 545571.900100000202656 ] ] ] ] } },
{ "type": "Feature", "properties": { "명칭": "서울빌딩", "구분": "주택외건물", "종류": "주택외건물", "용도": "근린생활시설", "주기": null, "층수": 7.0, "UFID": "100037705091B00116445072883207255", "area": 363.97474400388842, "poly1_idx": 45, "cut_link": false, "iou_1n": 0.64116323124184982, "ol_pl1_1n": 0.66738816667021139, "ol_pl2_1n": 0.94225232115222313, "iou_n1": null, "ol_pl1_n1": null, "ol_pl2_n1": null, "iou_11": null, "ol_pl1_11": null, "ol_pl2_11": null, "iou_nn": 0.64454967386898454, "ol_pl1_nn": 0.84110784599829846, "ol_pl2_nn": 0.73391122334118841, "comp_idx": 41.0, "rel_cd": "N:1", "class_10": "N:1 갱신", "cd_class": "갱신" }, "geometry": { "type": "MultiPolygon", "coordinates": [ [ [ [ 201535.179999999701977, 545558.910000000149012 ], [ 201527.960099999792874, 545579.369999999180436 ], [ 201543.879999999888241, 545584.880100000649691 ], [ 201551.209999999962747, 545565.100199999287724 ], [ 201535.179999999701977, 545558.910000000149012 ] ] ] ] } },
{ "type": "Feature", "properties": { "명칭": "남일빌딩", "구분": "주택외건물", "종류": "주택외건물", "용도": "근린생활시설", "주기": null, "층수": 7.0, "UFID": "100037705091B00115770682769043034", "area": 224.96127750444367, "poly1_idx": 46, "cut_link": false, "iou_1n": 0.64116323124184982, "ol_pl1_1n": 0.66738816667021139, "ol_pl2_1n": 0.94225232115222313, "iou_n1": null, "ol_pl1_n1": null, "ol_pl2_n1": null, "iou_11": null, "ol_pl1_11": null, "ol_pl2_11": null, "iou_nn": 0.15653488391249806, "ol_pl1_nn": 0.38631945780928745, "ol_pl2_nn": 0.20834109781103477, "comp_idx": 41.0, "rel_cd": "N:1", "class_10": "N:1 갱신", "cd_class": "갱신" }, "geometry": { "type": "MultiPolygon", "coordinates": [ [ [ [ 201551.059999999590218, 545570.429999999701977 ], [ 201545.21999999973923, 545586.420099999755621 ], [ 201557.320199999958277, 545591.240000000223517 ], [ 201563.420099999755621, 545575.050100000575185 ], [ 201551.059999999590218, 545570.429999999701977 ] ] ] ] } },
{ "type": "Feature", "properties": { "명칭": null, "구분": "주택외건물", "종류": "주택외건물", "용도": "근린생활시설", "주기": "신용욱연기학원", "층수": 3.0, "UFID": "100037705091B00116793888165393359", "area": 165.78219900548265, "poly1_idx": 47, "cut_link": false, "iou_1n": null, "ol_pl1_1n": null, "ol_pl2_1n": null, "iou_n1": null, "ol_pl1_n1": null, "ol_pl2_n1": null, "iou_11": null, "ol_pl1_11": null, "ol_pl2_11": null, "iou_nn": 0.098862361035477284, "ol_pl1_nn": 0.11824139983011947, "ol_pl2_nn": 0.37625127453818252, "comp_idx": 42.0, "rel_cd": "1:1", "class_10": "1:1 갱신", "cd_class": "갱신" }, "geometry": { "type": "MultiPolygon", "coordinates": [ [ [ [ 201566.769999999552965, 545575.160099999979138 ], [ 201561.32010000012815, 545590.310100000351667 ], [ 201570.939899999648333, 545593.859999999403954 ], [ 201576.499900000169873, 545578.870100000873208 ], [ 201566.769999999552965, 545575.160099999979138 ] ] ] ] } }
]
}
